{
  "version": 0.6,
  "generator": "Overpass API 0.7.55.1009 5e627b63",
  "osm3s": {
    "timestamp_osm_base": "2020-01-05T14:24:02Z",
    "copyright": "The data included in this document is from www.openstreetmap.org. The data is made available under ODbL."
  },
  "elements": [

{
  "type": "node",
  "id": 280924752,
  "lat": 47.0584639,
  "lon": 28.8675067,
  "tags": {
    "amenity": "bus_station",
    "highway": "bus_stop",
    "name": "str. Studenților",
    "name:ru": "Студенческая ул.",
    "public_transport": "platform"
  }
},
{
  "type": "node",
  "id": 325004921,
  "lat": 46.9908161,
  "lon": 28.8221045,
  "tags": {
    "highway": "bus_stop",
    "name": "Grenoble",
    "name:ru": "ул. Георге Асаки",
    "public_transport": "platform"
  }
},
{
  "type": "node",
  "id": 325004923,
  "lat": 46.9925681,
  "lon": 28.8185291,
  "tags": {
    "highway": "bus_stop",
    "name": "str. Miorița",
    "name:ru": "ул. Миорица",
    "public_transport": "platform"
  }
},
{
  "type": "node",
  "id": 325004929,
  "lat": 46.9969910,
  "lon": 28.8090044,
  "tags": {
    "highway": "bus_stop",
    "name": "str. Miorița",
    "name:ru": "ул. Миорица",
    "old_name": "ул. Прянишникова",
    "public_transport": "platform"
  }
},
{
  "type": "node",
  "id": 325004932,
  "lat": 46.9937220,
  "lon": 28.8150109,
  "tags": {
    "highway": "bus_stop",
    "name": "Campusul Academic",
    "name:ru": "Академический Городок",
    "public_transport": "platform"
  }
},
{
  "type": "node",
  "id": 325004934,
  "lat": 46.9931771,
  "lon": 28.8201395,
  "tags": {
    "highway": "bus_stop",
    "name": "Colegiul de Construcții",
    "name:ru": "Строительный колледж",
    "public_transport": "platform"
  }
},
{
  "type": "node",
  "id": 325004940,
  "lat": 46.9980181,
  "lon": 28.8203898,
  "tags": {
    "highway": "bus_stop",
    "name": "str. V. Korolenko",
    "name:ru": "ул. В. Короленко",
    "public_transport": "platform"
  }
},
{
  "type": "node",
  "id": 325004946,
  "lat": 47.0011160,
  "lon": 28.8219818,
  "tags": {
    "highway": "bus_stop",
    "name": "str. Gh. Asachi",
    "name:ru": "ул. Георге Асаки",
    "public_transport": "platform"
  }
},
{
  "type": "node",
  "id": 325004949,
  "lat": 47.0035210,
  "lon": 28.8243140,
  "tags": {
    "highway": "bus_stop",
    "loc_name": "Academia de Politia",
    "name": "str. Gh. Tudor",
    "name:ru": "ул. Г. Тудор",
    "public_transport": "platform"
  }
},
{
  "type": "node",
  "id": 325004954,
  "lat": 47.0089282,
  "lon": 28.8278221,
  "tags": {
    "highway": "bus_stop",
    "name": "Piaţa Pan Halippa",
    "name:ru": "Кинотеатр \"Гаудеамус\"",
    "public_transport": "platform"
  }
},
{
  "type": "node",
  "id": 325004957,
  "lat": 47.0084584,
  "lon": 28.8273085,
  "tags": {
    "highway": "bus_stop",
    "name": "Piaţa Pan Halippa",
    "name:ru": "Площадь Пана Халипы",
    "public_transport": "platform"
  }
},
{
  "type": "node",
  "id": 325004979,
  "lat": 47.0183652,
  "lon": 28.8230148,
  "tags": {
    "bus": "yes",
    "highway": "bus_stop",
    "name": "Universitatea de Stat",
    "name:ru": "Государственный университет",
    "public_transport": "platform"
  }
},
{
  "type": "node",
  "id": 325004984,
  "lat": 47.0190219,
  "lon": 28.8273444,
  "tags": {
    "bus": "yes",
    "highway": "bus_stop",
    "name": "str. Mihail Kogalniceanu",
    "name:ru": "ул. Пушкина",
    "public_transport": "platform"
  }
},
{
  "type": "node",
  "id": 325004987,
  "lat": 47.0213214,
  "lon": 28.8306802,
  "tags": {
    "bus": "yes",
    "highway": "bus_stop",
    "name": "Casa Presei",
    "name:ru": "Дом Печати",
    "public_transport": "platform"
  }
},
{
  "type": "node",
  "id": 325004990,
  "lat": 47.0225088,
  "lon": 28.8295459,
  "tags": {
    "bus": "yes",
    "highway": "bus_stop",
    "name": "str. 31 August 1989",
    "name:ro": "str. 31 August 1989",
    "name:ru": "ул. 31 Августа 1989",
    "public_transport": "platform"
  }
},
{
  "type": "node",
  "id": 325004996,
  "lat": 47.0221766,
  "lon": 28.8259731,
  "tags": {
    "bus": "yes",
    "highway": "bus_stop",
    "name": "str. București",
    "name:ro": "str. București",
    "name:ru": "ул. Букурешть",
    "public_transport": "platform"
  }
},
{
  "type": "node",
  "id": 325004999,
  "lat": 47.0243474,
  "lon": 28.8349551,
  "tags": {
    "bus": "yes",
    "highway": "bus_stop",
    "name": "Bd. Ștefan cel Mare și Sfânt",
    "name:ro": "Bd. Ștefan cel Mare și Sfânt",
    "name:ru": "Площадь Великого Национального Собрания",
    "public_transport": "platform"
  }
},
{
  "type": "node",
  "id": 325005015,
  "lat": 47.0263308,
  "lon": 28.8296621,
  "tags": {
    "bus": "yes",
    "highway": "bus_stop",
    "name": "Cinematograful „Patria”",
    "name:ru": "Кинотеатр «Патрия»",
    "public_transport": "platform"
  }
},
{
  "type": "node",
  "id": 325005020,
  "lat": 47.0312278,
  "lon": 28.8227457,
  "tags": {
    "highway": "bus_stop",
    "name": "Universitatea Tehnică",
    "name:ru": "Технический университет",
    "public_transport": "platform"
  }
},
{
  "type": "node",
  "id": 325005035,
  "lat": 47.0343895,
  "lon": 28.8179857,
  "tags": {
    "bus": "yes",
    "highway": "bus_stop",
    "name": "Universitatea de Stat de Medicină și Farmacie",
    "name:ru": "Государственный университет Медицины и Фармации",
    "public_transport": "platform"
  }
},
{
  "type": "node",
  "id": 325005039,
  "lat": 47.0371529,
  "lon": 28.8121895,
  "tags": {
    "bus": "yes",
    "highway": "bus_stop",
    "name": "Universitatea Pedagogică de Stat „Ion Creangă“",
    "name:ru": "Государственный педагогический университет им. Иона Крянгэ",
    "public_transport": "platform"
  }
},
{
  "type": "node",
  "id": 325005042,
  "lat": 47.0371021,
  "lon": 28.8116957,
  "tags": {
    "bus": "yes",
    "highway": "bus_stop",
    "name": "Universitatea Pedagogică de Stat „Ion Creangă“",
    "name:ru": "Государственный педагогический университет им. Иона Крянгэ",
    "public_transport": "platform"
  }
},
{
  "type": "node",
  "id": 325005049,
  "lat": 47.0381774,
  "lon": 28.8099481,
  "tags": {
    "highway": "bus_stop",
    "name": "Piaţa Dimitrie Cantemir",
    "name:ru": "пл. Дмитрие Кантемир",
    "operator": "orange",
    "public_transport": "platform"
  }
},
{
  "type": "node",
  "id": 325005059,
  "lat": 47.0279938,
  "lon": 28.7910786,
  "tags": {
    "highway": "bus_stop",
    "name": "Piața Unirii Principatelor",
    "name:ru": "Площадь Объединения княжеств",
    "public_transport": "platform"
  }
},
{
  "type": "node",
  "id": 325005062,
  "lat": 47.0287199,
  "lon": 28.7891559,
  "tags": {
    "highway": "bus_stop",
    "name": "Piaţa Unirii Principatelor",
    "name:ru": "Площадь Объединения княжеств",
    "public_transport": "platform"
  }
},
{
  "type": "node",
  "id": 325005065,
  "lat": 47.0282921,
  "lon": 28.7962046,
  "tags": {
    "highway": "bus_stop",
    "name": "str. Doina și Ion Aldea-Teodorovici",
    "name:ru": "ул. Дойна и Ион Алдя-Теодорович",
    "public_transport": "platform"
  }
},
{
  "type": "node",
  "id": 325005073,
  "lat": 47.0281582,
  "lon": 28.7963420,
  "tags": {
    "highway": "bus_stop",
    "name": "str. Ion Creangă",
    "name:ru": "ул. Иона Крянгэ",
    "public_transport": "platform"
  }
},
{
  "type": "node",
  "id": 325005077,
  "lat": 47.0218326,
  "lon": 28.8049124,
  "tags": {
    "highway": "bus_stop",
    "name": "Vasile Lupu",
    "name:ru": "Василе Лупу",
    "public_transport": "platform"
  }
},
{
  "type": "node",
  "id": 325005081,
  "lat": 47.0325536,
  "lon": 28.8052341,
  "tags": {
    "highway": "bus_stop",
    "name": "str. Ștefan Neaga",
    "name:ru": "ул. Штефана Няга",
    "public_transport": "platform"
  }
},
{
  "type": "node",
  "id": 325005084,
  "lat": 47.0324280,
  "lon": 28.8054233,
  "tags": {
    "highway": "bus_stop",
    "name": "str. Ștefan Neaga",
    "name:ru": "ул. Штефана Няга",
    "public_transport": "platform"
  }
},
{
  "type": "node",
  "id": 325005089,
  "lat": 47.0222971,
  "lon": 28.8087679,
  "tags": {
    "bus": "yes",
    "highway": "bus_stop",
    "name": "str. Eugen Coca",
    "name:ru": "ул. Евгений Кока",
    "operator": "3, 4",
    "public_transport": "platform"
  }
},
{
  "type": "node",
  "id": 325005092,
  "lat": 47.0202032,
  "lon": 28.8392228,
  "tags": {
    "bus": "yes",
    "highway": "bus_stop",
    "name": "str. Armenească",
    "name:ru": "Армянская ул.",
    "public_transport": "platform"
  }
},
{
  "type": "node",
  "id": 325005105,
  "lat": 47.0110807,
  "lon": 28.8582041,
  "tags": {
    "highway": "bus_stop",
    "name": "Gara Feroviara",
    "name:ru": "Железнодорожный вокзал. ЖД вокзал",
    "public_transport": "platform"
  }
},
{
  "type": "node",
  "id": 325005107,
  "lat": 47.0111314,
  "lon": 28.8586766,
  "tags": {
    "highway": "bus_stop",
    "name": "Gara Feroviara",
    "name:ru": "Железнодорожный вокзал. ЖД вокзал",
    "public_transport": "platform"
  }
},
{
  "type": "node",
  "id": 325005110,
  "lat": 46.9999508,
  "lon": 28.8598097,
  "tags": {
    "highway": "bus_stop",
    "name": "str. N. Titulescu",
    "name:ru": "ул. Н. Титулеску",
    "public_transport": "platform"
  }
},
{
  "type": "node",
  "id": 325005112,
  "lat": 47.0007390,
  "lon": 28.8601763,
  "tags": {
    "highway": "bus_stop",
    "name": "str. N. Titulescu",
    "name:ru": "ул. Н. Титулеску",
    "public_transport": "platform"
  }
},
{
  "type": "node",
  "id": 325005114,
  "lat": 46.9969099,
  "lon": 28.8594670,
  "tags": {
    "highway": "bus_stop",
    "name": "Piața Decebal",
    "name:ru": "Площадь Дечебала",
    "public_transport": "platform"
  }
},
{
  "type": "node",
  "id": 325005116,
  "lat": 46.9924216,
  "lon": 28.8588139,
  "tags": {
    "highway": "bus_stop",
    "name": "str. Zelinski",
    "name:ro": "str. Zelinski",
    "name:ru": "ул. Зелинского",
    "public_transport": "platform"
  }
},
{
  "type": "node",
  "id": 325005118,
  "lat": 46.9937651,
  "lon": 28.8593968,
  "tags": {
    "highway": "bus_stop",
    "name": "str. Zelinski",
    "name:ru": "ул. Зелинского",
    "public_transport": "platform"
  }
},
{
  "type": "node",
  "id": 325005120,
  "lat": 46.9932625,
  "lon": 28.8651937,
  "tags": {
    "highway": "bus_stop",
    "name": "str. Sarmizegetusa",
    "name:ru": "ул. Сармизеджетуса",
    "public_transport": "platform"
  }
},
{
  "type": "node",
  "id": 325005123,
  "lat": 46.9875061,
  "lon": 28.8578964,
  "tags": {
    "highway": "bus_stop",
    "name": "bd. Decebal",
    "name:ru": "бульвар Дечебал",
    "public_transport": "platform"
  }
},
{
  "type": "node",
  "id": 325005137,
  "lat": 46.9814212,
  "lon": 28.8499512,
  "tags": {
    "bus": "yes",
    "highway": "bus_stop",
    "loc_name": "Nunta",
    "name": "Strada Independenței",
    "name:ro": "Strada Independenței",
    "name:ru": "ул. Индепенденцей",
    "public_transport": "platform"
  }
},
{
  "type": "node",
  "id": 325005139,
  "lat": 46.9821302,
  "lon": 28.8515821,
  "tags": {
    "bus": "yes",
    "highway": "bus_stop",
    "name": "str. Independenței",
    "name:ru": "ул. Индепенденцей",
    "public_transport": "platform"
  }
},
{
  "type": "node",
  "id": 325005143,
  "lat": 46.9786576,
  "lon": 28.8462786,
  "tags": {
    "bus": "yes",
    "highway": "bus_stop",
    "name": "Bulevardul Traian",
    "name:ru": "Бульвар Траяна",
    "public_transport": "platform"
  }
},
{
  "type": "node",
  "id": 325005156,
  "lat": 46.9827898,
  "lon": 28.8369193,
  "tags": {
    "highway": "bus_stop",
    "name": "str. Costiujeni",
    "name:ru": "Костюженская ул.",
    "public_transport": "platform"
  }
},
{
  "type": "node",
  "id": 325005170,
  "lat": 46.9861614,
  "lon": 28.8318000,
  "tags": {
    "highway": "bus_stop",
    "name": "Spitalul pentru copii nr.3",
    "name:ru": "Детская клиническая больница №3",
    "public_transport": "platform"
  }
},
{
  "type": "node",
  "id": 325005172,
  "lat": 46.9895907,
  "lon": 28.8262910,
  "tags": {
    "highway": "bus_stop",
    "name": "Policlinica Oncologică",
    "name:ru": "Онкологическая поликлиника",
    "public_transport": "platform"
  }
},
{
  "type": "node",
  "id": 325005177,
  "lat": 46.9900157,
  "lon": 28.8255463,
  "tags": {
    "highway": "bus_stop",
    "name": "Spitalul Oncologic",
    "name:ru": "Онкологическая больница",
    "public_transport": "platform"
  }
},
{
  "type": "node",
  "id": 325005186,
  "lat": 47.0028774,
  "lon": 28.8168030,
  "tags": {
    "highway": "bus_stop",
    "name": "str. Dokuceaev",
    "name:ru": "ул. Докучаева",
    "public_transport": "platform"
  }
},
{
  "type": "node",
  "id": 325005189,
  "lat": 46.9990510,
  "lon": 28.8087899,
  "tags": {
    "highway": "bus_stop",
    "name": "Telecentru",
    "name:ru": "Телецентр",
    "public_transport": "platform"
  }
},
{
  "type": "node",
  "id": 325005191,
  "lat": 47.0049130,
  "lon": 28.8213058,
  "tags": {
    "highway": "bus_stop",
    "loc_name": "Secenov",
    "name": "str. Gheorghe Tudor",
    "name:ru": "ул. Георге Тудор",
    "public_transport": "platform"
  }
},
{
  "type": "node",
  "id": 325005194,
  "lat": 46.9834960,
  "lon": 28.8615119,
  "tags": {
    "highway": "bus_stop",
    "name": "Bd. Cuza Vodă",
    "name:ru": "бульвар Куза Водэ",
    "public_transport": "platform"
  }
},
{
  "type": "node",
  "id": 325005196,
  "lat": 46.9824187,
  "lon": 28.8623498,
  "tags": {
    "highway": "bus_stop",
    "name": "bd. Cuza Vodă",
    "name:ru": "бульвар Куза Водэ",
    "public_transport": "platform"
  }
},
{
  "type": "node",
  "id": 325005197,
  "lat": 46.9791746,
  "lon": 28.8675759,
  "tags": {
    "highway": "bus_stop",
    "name": "Str. Burebista",
    "name:ro": "Str. Burebista",
    "name:ru": "ул. Буребиста",
    "public_transport": "platform"
  }
},
{
  "type": "node",
  "id": 325005200,
  "lat": 46.9790222,
  "lon": 28.8669898,
  "tags": {
    "bus": "yes",
    "highway": "bus_stop",
    "name": "Str. Independenței",
    "name:en": "Independenței Street",
    "name:ro": "Str. Independenței",
    "name:ru": "ул. Независимости",
    "public_transport": "platform"
  }
},
{
  "type": "node",
  "id": 340052760,
  "lat": 47.0244375,
  "lon": 28.8291614,
  "tags": {
    "bus": "yes",
    "highway": "bus_stop",
    "name": "Grădina Publică",
    "name:ru": "Парк",
    "public_transport": "platform"
  }
},
{
  "type": "node",
  "id": 340052764,
  "lat": 47.0432207,
  "lon": 28.8607499,
  "tags": {
    "bus": "yes",
    "highway": "bus_stop",
    "name": "str. Alecu Russo",
    "name:mo": "str. Alecu Russo",
    "name:ro": "str. Alecu Russo",
    "name:ru": "ул. Алеку Руссо",
    "public_transport": "platform"
  }
},
{
  "type": "node",
  "id": 340052765,
  "lat": 47.0498674,
  "lon": 28.8636871,
  "tags": {
    "highway": "bus_stop",
    "name": "str. Miron Costin",
    "name:ru": "ул. Мирона Костина",
    "public_transport": "platform"
  }
},
{
  "type": "node",
  "id": 340052766,
  "lat": 47.0491288,
  "lon": 28.8630222,
  "tags": {
    "highway": "bus_stop",
    "name": "str. Miron Costin",
    "name:ru": "ул. Мирона Костина",
    "public_transport": "platform"
  }
},
{
  "type": "node",
  "id": 340052767,
  "lat": 47.0586327,
  "lon": 28.8666919,
  "tags": {
    "highway": "bus_stop",
    "name": "str. Studenților",
    "name:ru": "ул. Студенческая",
    "public_transport": "platform"
  }
},
{
  "type": "node",
  "id": 340052768,
  "lat": 47.0360290,
  "lon": 28.8494001,
  "tags": {
    "highway": "bus_stop",
    "name": "Circul",
    "name:en": "Circus",
    "name:ru": "Цирк",
    "public_transport": "platform"
  }
},
{
  "type": "node",
  "id": 340052769,
  "lat": 47.0366359,
  "lon": 28.8497218,
  "tags": {
    "highway": "bus_stop",
    "name": "Circ",
    "name:ru": "Цирк",
    "public_transport": "platform"
  }
},
{
  "type": "node",
  "id": 340052772,
  "lat": 47.0287792,
  "lon": 28.8388897,
  "tags": {
    "bus": "yes",
    "highway": "bus_stop",
    "name": "bd. Grigore Vieru",
    "name:ru": "Бульвар Григория Виеру",
    "public_transport": "platform"
  }
},
{
  "type": "node",
  "id": 340052773,
  "lat": 47.0274523,
  "lon": 28.8335423,
  "tags": {
    "bus": "yes",
    "highway": "bus_stop",
    "name": "str. Columna",
    "name:ru": "ул. Колумна",
    "old_name": "ул. Фрунзе",
    "public_transport": "platform"
  }
},
{
  "type": "node",
  "id": 340052774,
  "lat": 47.0402243,
  "lon": 28.8599565,
  "tags": {
    "highway": "bus_stop",
    "name": "str. Kiev",
    "name:ru": "Киевская ул.",
    "public_transport": "platform",
    "shelter": "yes",
    "tactile_paving": "no"
  }
},
{
  "type": "node",
  "id": 340052775,
  "lat": 47.0454792,
  "lon": 28.8620731,
  "tags": {
    "bus": "yes",
    "highway": "bus_stop",
    "name": "str. Alecu Russo",
    "name:ru": "ул. Алеку Руссо",
    "public_transport": "platform"
  }
},
{
  "type": "node",
  "id": 340052776,
  "lat": 47.0431908,
  "lon": 28.8673308,
  "tags": {
    "highway": "bus_stop",
    "name": "str. Nicolae Dimo",
    "name:ru": "ул. Николая Димо",
    "public_transport": "platform"
  }
},
{
  "type": "node",
  "id": 340053720,
  "lat": 47.0189164,
  "lon": 28.8516557,
  "tags": {
    "highway": "bus_stop",
    "name": "bd. Dimitrie Cantemir",
    "name:ru": "пр-т Дмитрия Кантемира",
    "public_transport": "platform"
  }
},
{
  "type": "node",
  "id": 340053722,
  "lat": 47.0136719,
  "lon": 28.8538448,
  "tags": {
    "highway": "bus_stop",
    "name": "Bulevardul Constantin Negruzzi",
    "name:ru": "бул. Негруцци",
    "name_1": "bd. Negruzzi",
    "public_transport": "platform"
  }
},
{
  "type": "node",
  "id": 344866607,
  "lat": 46.9787438,
  "lon": 28.8690159,
  "tags": {
    "bus": "yes",
    "highway": "bus_stop",
    "name": "Str.Burebista",
    "name:en": "Burebista Street",
    "name:ru": "ул. Буребиста",
    "public_transport": "platform"
  }
},
{
  "type": "node",
  "id": 344909590,
  "lat": 46.9832959,
  "lon": 28.8626751,
  "tags": {
    "highway": "bus_stop",
    "public_transport": "platform"
  }
},
{
  "type": "node",
  "id": 345324570,
  "lat": 46.9767065,
  "lon": 28.8703912,
  "tags": {
    "bus": "yes",
    "highway": "bus_stop",
    "name": "Valea Crucii",
    "name:ru": "Валя Кручий",
    "public_transport": "platform"
  }
},
{
  "type": "node",
  "id": 370413213,
  "lat": 47.0561356,
  "lon": 28.8908454,
  "tags": {
    "highway": "bus_stop",
    "name": "str. Ion Dumeniuc",
    "name:ro": "str. Ion Dumeniuc 26",
    "name:ru": "ул. Ион Думенюк",
    "public_transport": "platform"
  }
},
{
  "type": "node",
  "id": 370413215,
  "lat": 47.0569726,
  "lon": 28.8917057,
  "tags": {
    "highway": "bus_stop",
    "name": "str. Ion Dumeniuc",
    "name:ru": "ул. Иона Думенюка",
    "public_transport": "platform"
  }
},
{
  "type": "node",
  "id": 370413235,
  "lat": 47.0504495,
  "lon": 28.8900272,
  "tags": {
    "highway": "bus_stop",
    "name": "str. Igor Vieru",
    "name:ru": "ул. Игорь Виеру",
    "public_transport": "platform"
  }
},
{
  "type": "node",
  "id": 370413258,
  "lat": 47.0373205,
  "lon": 28.8899577,
  "tags": {
    "bench": "yes",
    "covered": "yes",
    "highway": "bus_stop",
    "name": "bd. Mircea cel Bătrân",
    "name:ru": "бульвар Мирча чел Бэтрын",
    "public_transport": "platform",
    "shelter": "yes"
  }
},
{
  "type": "node",
  "id": 372462848,
  "lat": 46.9787855,
  "lon": 28.8557751,
  "tags": {
    "bus": "yes",
    "highway": "bus_stop",
    "name": "str. Independenţei",
    "name:ru": "ул. Индепенденцей",
    "public_transport": "platform"
  }
},
{
  "type": "node",
  "id": 372462853,
  "lat": 46.9744078,
  "lon": 28.8487364,
  "tags": {
    "highway": "bus_stop",
    "name": "str. Grenoble",
    "name:ru": "ул. Гренобля",
    "public_transport": "platform"
  }
},
{
  "type": "node",
  "id": 372462856,
  "lat": 46.9746195,
  "lon": 28.8495027,
  "tags": {
    "highway": "bus_stop",
    "name": "str. Grenoble",
    "name:ru": "ул. Гренобля",
    "public_transport": "platform"
  }
},
{
  "type": "node",
  "id": 372466319,
  "lat": 46.9897664,
  "lon": 28.8529137,
  "tags": {
    "highway": "bus_stop",
    "name": "str. Teilor",
    "name:ru": "ул. Теилор",
    "public_transport": "platform"
  }
},
{
  "type": "node",
  "id": 376339061,
  "lat": 47.0135771,
  "lon": 28.8381889,
  "tags": {
    "highway": "bus_stop",
    "name": "str. București",
    "name:ru": "ул. Букурешть",
    "public_transport": "platform"
  }
},
{
  "type": "node",
  "id": 376339063,
  "lat": 47.0458602,
  "lon": 28.8546424,
  "tags": {
    "highway": "bus_stop"
  }
},
{
  "type": "node",
  "id": 376339064,
  "lat": 47.0601615,
  "lon": 28.8618706,
  "tags": {
    "highway": "bus_stop",
    "name": "str. Florilor",
    "name:ru": "ул. Флорилор",
    "public_transport": "platform"
  }
},
{
  "type": "node",
  "id": 376339067,
  "lat": 47.0621768,
  "lon": 28.8458975,
  "tags": {
    "bench": "yes",
    "bus": "yes",
    "covered": "yes",
    "highway": "bus_stop",
    "name": "str. Socoleni",
    "name:ru": "ул. Соколень",
    "public_transport": "platform",
    "shelter": "yes"
  }
},
{
  "type": "node",
  "id": 376339068,
  "lat": 47.0083224,
  "lon": 28.8328181,
  "tags": {
    "highway": "bus_stop",
    "name": "Complexul Memorial \"Eternitate\"",
    "name:ru": "Мемориальный комплекс \"Вечность\"",
    "public_transport": "platform"
  }
},
{
  "type": "node",
  "id": 376339071,
  "lat": 47.0086922,
  "lon": 28.8336637,
  "tags": {
    "highway": "bus_stop",
    "name": "Complexul Memorial \"Eternitate\"",
    "name:ru": "Мемориальный комплекс \"Вечность\"",
    "public_transport": "platform"
  }
},
{
  "type": "node",
  "id": 376339072,
  "lat": 47.0135272,
  "lon": 28.8471549,
  "tags": {
    "highway": "bus_stop",
    "name": "str. Ciuflea",
    "name:ru": "ул. Чуфля",
    "public_transport": "platform"
  }
},
{
  "type": "node",
  "id": 376339075,
  "lat": 47.0124314,
  "lon": 28.8459592,
  "tags": {
    "highway": "bus_stop",
    "name": "str. Ciuflea",
    "name:ru": "ул. Чуфля",
    "public_transport": "platform"
  }
},
{
  "type": "node",
  "id": 376339076,
  "lat": 47.0124666,
  "lon": 28.8405442,
  "tags": {
    "highway": "bus_stop",
    "name": "str. București",
    "name:ru": "улица Букурешть",
    "public_transport": "platform"
  }
},
{
  "type": "node",
  "id": 376339079,
  "lat": 47.0122535,
  "lon": 28.8406029,
  "tags": {
    "highway": "bus_stop",
    "name": "str. București",
    "name:ru": "улица Букурешть",
    "public_transport": "platform"
  }
},
{
  "type": "node",
  "id": 376339080,
  "lat": 47.0125759,
  "lon": 28.8362223,
  "tags": {
    "highway": "bus_stop"
  }
},
{
  "type": "node",
  "id": 376339083,
  "lat": 47.0151923,
  "lon": 28.8321916,
  "tags": {
    "highway": "bus_stop"
  }
},
{
  "type": "node",
  "id": 376339089,
  "lat": 46.9780246,
  "lon": 28.8645225,
  "tags": {
    "bus": "yes",
    "highway": "bus_stop",
    "name": "Centrul Comercial \"Arizona\"",
    "name:ru": "Супермаркет \"Аризона\"",
    "public_transport": "platform"
  }
},
{
  "type": "node",
  "id": 376339091,
  "lat": 46.9780905,
  "lon": 28.8635457,
  "tags": {
    "bus": "yes",
    "highway": "bus_stop",
    "name": "Centrul Comercial \"Arizona\"",
    "name:ru": "Супермаркет \"Аризона\"",
    "public_transport": "platform"
  }
},
{
  "type": "node",
  "id": 376339093,
  "lat": 46.9787715,
  "lon": 28.8548617,
  "tags": {
    "bus": "yes",
    "highway": "bus_stop",
    "name": "bd. Cuza Vodă",
    "name:ru": "бульвар Куза Водэ",
    "public_transport": "platform"
  }
},
{
  "type": "node",
  "id": 376339095,
  "lat": 46.9772038,
  "lon": 28.8592294,
  "tags": {
    "bus": "yes",
    "highway": "bus_stop",
    "name": "Sala de Ceremonii „Cvin“",
    "name:en": "Banquet Room \"Cvin\"",
    "name:ru": "Банкет \"Квин\"",
    "public_transport": "platform"
  }
},
{
  "type": "node",
  "id": 376339098,
  "lat": 47.0131692,
  "lon": 28.8405074,
  "tags": {
    "highway": "bus_stop",
    "name": "Stadionul Republican",
    "name:ru": "Республиканский стадион"
  }
},
{
  "type": "node",
  "id": 376339099,
  "lat": 46.9772778,
  "lon": 28.8584234,
  "tags": {
    "bus": "yes",
    "highway": "bus_stop",
    "name": "Supermarket „Cvin“",
    "name:ru": "Супермаркет «Квин»",
    "public_transport": "platform"
  }
},
{
  "type": "node",
  "id": 376339107,
  "lat": 47.0154830,
  "lon": 28.8264898,
  "tags": {
    "highway": "bus_stop",
    "name": "str. Mihai Eminescu",
    "name:ru": "ул. Михая Эминеску",
    "public_transport": "platform"
  }
},
{
  "type": "node",
  "id": 376339108,
  "lat": 47.0092827,
  "lon": 28.8362401,
  "tags": {
    "highway": "bus_stop",
    "name": "A. Mateevici",
    "name:ru": "А. Матеевич",
    "public_transport": "platform"
  }
},
{
  "type": "node",
  "id": 376339111,
  "lat": 46.9811142,
  "lon": 28.8511599,
  "tags": {
    "bus": "yes",
    "highway": "bus_stop",
    "name": "Bulevardul Traian",
    "public_transport": "platform"
  }
},
{
  "type": "node",
  "id": 376339112,
  "lat": 46.9821988,
  "lon": 28.8500624,
  "tags": {
    "bus": "yes",
    "highway": "bus_stop",
    "name": "Bulevardul Traian",
    "name:ro": "Bulevardul Traian",
    "name:ru": "бульвар Траян",
    "public_transport": "platform"
  }
},
{
  "type": "node",
  "id": 376339115,
  "lat": 46.9832692,
  "lon": 28.8480799,
  "tags": {
    "bus": "yes",
    "highway": "bus_stop",
    "name": "Strada Teilor",
    "name:ru": "Улица Теилор",
    "public_transport": "platform"
  }
},
{
  "type": "node",
  "id": 376339116,
  "lat": 46.9840073,
  "lon": 28.8475599,
  "tags": {
    "highway": "bus_stop",
    "name": "str. Teilor",
    "name:ru": "ул. Теилор",
    "public_transport": "platform"
  }
},
{
  "type": "node",
  "id": 376339120,
  "lat": 46.9854543,
  "lon": 28.8450518,
  "tags": {
    "highway": "bus_stop",
    "name": "str. Independenței",
    "name:ru": "ул. Независимости",
    "public_transport": "platform"
  }
},
{
  "type": "node",
  "id": 376339127,
  "lat": 47.0053984,
  "lon": 28.8417466,
  "tags": {
    "highway": "bus_stop",
    "name": "Spitalul Clinic Municipal nr.1",
    "name:ru": "Городская клиническая больница №1",
    "public_transport": "platform"
  }
},
{
  "type": "node",
  "id": 376339128,
  "lat": 47.0106495,
  "lon": 28.8428603,
  "tags": {
    "highway": "bus_stop",
    "name": "Piața Ovidiu",
    "name:ru": "площадь Овидиу",
    "public_transport": "platform"
  }
},
{
  "type": "node",
  "id": 376339135,
  "lat": 47.0224474,
  "lon": 28.8594908,
  "tags": {
    "highway": "bus_stop",
    "name": "Calea Basarabiei",
    "name:ru": "Ассоциация \"Кожа\"",
    "public_transport": "platform"
  }
},
{
  "type": "node",
  "id": 376339136,
  "lat": 47.0227650,
  "lon": 28.8603874,
  "tags": {
    "highway": "bus_stop",
    "name": "Calea Basarabiei",
    "name:ru": "Кожзавод",
    "public_transport": "platform"
  }
},
{
  "type": "node",
  "id": 376339139,
  "lat": 47.0204126,
  "lon": 28.8529655,
  "tags": {
    "highway": "bus_stop",
    "name": "Strada Alexandru Hâjdeu",
    "name:ru": "ул. Александра Хыждеу",
    "public_transport": "platform"
  }
},
{
  "type": "node",
  "id": 376339140,
  "lat": 47.0104305,
  "lon": 28.8378404,
  "tags": {
    "highway": "bus_stop",
    "name": "Mihai Kogălniceanu",
    "name:ru": "Михай Когэлничану",
    "public_transport": "platform"
  }
},
{
  "type": "node",
  "id": 376339143,
  "lat": 47.0213645,
  "lon": 28.8286776,
  "tags": {
    "bus": "yes",
    "highway": "bus_stop",
    "name": "str. A. Pușkin",
    "name:ru": "ул. А. Пушкина",
    "public_transport": "platform"
  }
},
{
  "type": "node",
  "id": 376339144,
  "lat": 47.0210438,
  "lon": 28.8231253,
  "tags": {
    "bus": "yes",
    "highway": "bus_stop",
    "public_transport": "platform"
  }
},
{
  "type": "node",
  "id": 376339147,
  "lat": 47.0128935,
  "lon": 28.8279157,
  "tags": {
    "highway": "bus_stop",
    "name": "str. Anton Crihan",
    "name:ru": "ул. Антон Крихан",
    "public_transport": "platform"
  }
},
{
  "type": "node",
  "id": 376339151,
  "lat": 47.0228915,
  "lon": 28.8260483,
  "tags": {
    "bus": "yes",
    "highway": "bus_stop",
    "public_transport": "platform"
  }
},
{
  "type": "node",
  "id": 376339155,
  "lat": 47.0222000,
  "lon": 28.8357781,
  "tags": {
    "bus": "yes",
    "highway": "bus_stop",
    "name": "Teatrul M. Eminescu",
    "name:ru": "Театр М. Эминеску",
    "public_transport": "platform",
    "shelter": "yes",
    "wheelchair": "yes"
  }
},
{
  "type": "node",
  "id": 376339157,
  "lat": 47.0231458,
  "lon": 28.8348130,
  "tags": {
    "bus": "yes",
    "highway": "bus_stop",
    "name": "Piața Mării Adunări Naționale",
    "name:ru": "Площадь Великого Национального Собрания",
    "public_transport": "platform",
    "shelter": "yes",
    "wheelchair": "yes"
  }
},
{
  "type": "node",
  "id": 376339159,
  "lat": 47.0340215,
  "lon": 28.8192612,
  "tags": {
    "bus": "yes",
    "highway": "bus_stop",
    "name": "Universitatea de Stat de Medicină și Farmacie",
    "name:ru": "Государственный университет Медицины и Фармации",
    "public_transport": "platform"
  }
},
{
  "type": "node",
  "id": 376339162,
  "lat": 47.0332483,
  "lon": 28.8175896,
  "tags": {
    "bus": "yes",
    "highway": "bus_stop",
    "name": "Universitatea de Stat de Medicină și Farmacie",
    "name:ru": "Государственный университет медицины и фармакологии",
    "public_transport": "platform"
  }
},
{
  "type": "node",
  "id": 376339163,
  "lat": 47.0269400,
  "lon": 28.8203039,
  "tags": {
    "bus": "yes",
    "highway": "bus_stop",
    "name": "str. Serghei Lazo",
    "name:ru": "ул. Сергея Лазо",
    "public_transport": "platform"
  }
},
{
  "type": "node",
  "id": 376339167,
  "lat": 47.0221922,
  "lon": 28.7996077,
  "tags": {
    "highway": "bus_stop",
    "public_transport": "platform"
  }
},
{
  "type": "node",
  "id": 376339170,
  "lat": 47.0235287,
  "lon": 28.7907998,
  "tags": {
    "highway": "bus_stop",
    "name": "Vasile Lupu",
    "name:ru": "Василе Лупу",
    "public_transport": "platform"
  }
},
{
  "type": "node",
  "id": 376339171,
  "lat": 47.0234849,
  "lon": 28.7897652,
  "tags": {
    "highway": "bus_stop",
    "name": "Vasile Lupu",
    "name:ru": "Василе Лупу",
    "public_transport": "platform"
  }
},
{
  "type": "node",
  "id": 376339174,
  "lat": 47.0370472,
  "lon": 28.8203371,
  "tags": {
    "bus": "yes",
    "highway": "bus_stop",
    "name": "Asociația „Tracom“",
    "name:ru": "Ассоциация \"Траком\"",
    "public_transport": "platform"
  }
},
{
  "type": "node",
  "id": 376339175,
  "lat": 47.0446114,
  "lon": 28.7884948,
  "tags": {
    "bus": "yes",
    "highway": "bus_stop",
    "name": "Parcul „La Izvor“",
    "name:ru": "Парк «Ла Извор»",
    "public_transport": "platform"
  }
},
{
  "type": "node",
  "id": 376339178,
  "lat": 47.0442382,
  "lon": 28.7887317,
  "tags": {
    "bus": "yes",
    "highway": "bus_stop",
    "name": "Parcul „La Izvor“",
    "name:ru": "Парк «Ла Извор»",
    "public_transport": "platform"
  }
},
{
  "type": "node",
  "id": 376339180,
  "lat": 47.0381188,
  "lon": 28.8052532,
  "tags": {
    "highway": "bus_stop",
    "name": "Parcul Alunelul",
    "public_transport": "platform"
  }
},
{
  "type": "node",
  "id": 376339182,
  "lat": 47.0269324,
  "lon": 28.8027480,
  "tags": {
    "highway": "bus_stop",
    "name": "str. P. Ceaikovski",
    "name:ru": "ул. П. Чайковского",
    "public_transport": "platform"
  }
},
{
  "type": "node",
  "id": 376339190,
  "lat": 47.0465026,
  "lon": 28.7804675,
  "tags": {
    "bus": "yes",
    "highway": "bus_stop",
    "name": "Teleferic",
    "name:ru": "Телеферик",
    "public_transport": "platform"
  }
},
{
  "type": "node",
  "id": 376339192,
  "lat": 46.9828431,
  "lon": 28.8785426,
  "tags": {
    "highway": "bus_stop",
    "name": "str. Burebista",
    "name:ru": "ул. Буребиста",
    "public_transport": "platform"
  }
},
{
  "type": "node",
  "id": 376339194,
  "lat": 46.9826014,
  "lon": 28.8772987,
  "tags": {
    "bus": "yes",
    "highway": "bus_stop",
    "name": "Combinatul de Panificație \"Franzeluța\"",
    "name:ru": "Хлебзавод \"Франзелуца\"",
    "public_transport": "platform"
  }
},
{
  "type": "node",
  "id": 376339198,
  "lat": 46.9823073,
  "lon": 28.8608146,
  "tags": {
    "highway": "bus_stop",
    "name": "bd. Cuza Vodă",
    "name:ru": "бульвар Куза Водэ",
    "public_transport": "platform"
  }
},
{
  "type": "node",
  "id": 376339200,
  "lat": 46.9797467,
  "lon": 28.8954695,
  "tags": {
    "highway": "bus_stop",
    "name": "str. Muncești",
    "name:ru": "ул. Мунчештская",
    "public_transport": "platform"
  }
},
{
  "type": "node",
  "id": 376339202,
  "lat": 46.9794237,
  "lon": 28.8896104,
  "tags": {
    "highway": "bus_stop",
    "name": "str. Pădurii",
    "name:ru": "ул. Лесная",
    "public_transport": "platform"
  }
},
{
  "type": "node",
  "id": 376339204,
  "lat": 46.9793867,
  "lon": 28.8929164,
  "tags": {
    "highway": "bus_stop",
    "name": "str. Pădurii",
    "name:ru": "ул. Лесная",
    "public_transport": "platform"
  }
},
{
  "type": "node",
  "id": 376339207,
  "lat": 46.9802079,
  "lon": 28.8825636,
  "tags": {
    "highway": "bus_stop",
    "name": "Parcul de Autobuze nr.2",
    "name:ru": "Автобусный парк №2",
    "public_transport": "platform"
  }
},
{
  "type": "node",
  "id": 376339208,
  "lat": 47.0024468,
  "lon": 28.8904762,
  "tags": {
    "highway": "bus_stop",
    "name": "Şcoala Medie pe Schimburi nr. 3",
    "public_transport": "platform"
  }
},
{
  "type": "node",
  "id": 376339210,
  "lat": 47.0051772,
  "lon": 28.8870378,
  "tags": {
    "highway": "bus_stop",
    "name": "Asociația \"Beton Armat\"",
    "name:ru": "Ассоциация \"Армированный бетон\"",
    "public_transport": "platform"
  }
},
{
  "type": "node",
  "id": 376339213,
  "lat": 47.0086455,
  "lon": 28.8802687,
  "tags": {
    "highway": "bus_stop",
    "name": "Asociația \"Agromașina\"",
    "name:ru": "Ассоциация \"Агромашина\"",
    "public_transport": "platform"
  }
},
{
  "type": "node",
  "id": 376339215,
  "lat": 47.0096376,
  "lon": 28.8785616,
  "tags": {
    "highway": "bus_stop",
    "name": "Asociația \"Agromașina\"",
    "name:ru": "Ассоциация \"Агромашина\"",
    "public_transport": "platform"
  }
},
{
  "type": "node",
  "id": 376339217,
  "lat": 46.9968141,
  "lon": 28.8616505,
  "tags": {
    "highway": "bus_stop",
    "name": "str. Minsk",
    "name:ru": "Минская ул.",
    "public_transport": "platform"
  }
},
{
  "type": "node",
  "id": 376339219,
  "lat": 46.9967548,
  "lon": 28.8997748,
  "tags": {
    "highway": "bus_stop",
    "name": "Asociatia \"Vitanta\"",
    "name:ru": "Ассоциация \"Витанта\"",
    "public_transport": "platform"
  }
},
{
  "type": "node",
  "id": 376339221,
  "lat": 46.9989681,
  "lon": 28.8953611,
  "tags": {
    "highway": "bus_stop",
    "name": "Şcoala Medie pe Schimburi nr. 3",
    "public_transport": "platform"
  }
},
{
  "type": "node",
  "id": 376339222,
  "lat": 46.9985099,
  "lon": 28.8964880,
  "tags": {
    "highway": "bus_stop",
    "name": "Asociaţia \"Efes-Vitanta\"",
    "name:ru": "Ассоциация \"Эфес-Витанта\"",
    "public_transport": "platform"
  }
},
{
  "type": "node",
  "id": 376339225,
  "lat": 47.0181662,
  "lon": 28.8704309,
  "tags": {
    "highway": "bus_stop",
    "name": "Asociaţia \"Cerealiere\"",
    "public_transport": "platform"
  }
},
{
  "type": "node",
  "id": 376339226,
  "lat": 47.0180956,
  "lon": 28.8708503,
  "tags": {
    "highway": "bus_stop",
    "name": "Asociaţia \"Cerialiere\"",
    "public_transport": "platform"
  }
},
{
  "type": "node",
  "id": 376339229,
  "lat": 47.0230891,
  "lon": 28.8671806,
  "tags": {
    "highway": "bus_stop",
    "name": "CET-1"
  }
},
{
  "type": "node",
  "id": 376339230,
  "lat": 47.0223274,
  "lon": 28.8671697,
  "tags": {
    "highway": "bus_stop",
    "name": "Asociaţia \"Tutun-CTC\"",
    "public_transport": "platform"
  }
},
{
  "type": "node",
  "id": 376339233,
  "lat": 47.0121854,
  "lon": 28.8763751,
  "tags": {
    "highway": "bus_stop",
    "name": "Keramin",
    "name:ru": "Керамин",
    "public_transport": "platform"
  }
},
{
  "type": "node",
  "id": 376339234,
  "lat": 47.0116154,
  "lon": 28.8765952,
  "tags": {
    "highway": "bus_stop",
    "name": "Keramin",
    "name:ru": "Керамин",
    "public_transport": "platform"
  }
},
{
  "type": "node",
  "id": 376339237,
  "lat": 47.0148863,
  "lon": 28.8737847,
  "tags": {
    "highway": "bus_stop",
    "name": "Centrul Comercial \"Progres\"",
    "name:ru": "Коммерческий центр \"Прогресс\"",
    "public_transport": "platform"
  }
},
{
  "type": "node",
  "id": 376339239,
  "lat": 47.0147515,
  "lon": 28.8736119,
  "tags": {
    "highway": "bus_stop",
    "name": "Centrul Comercial \"Progres\"",
    "name:ru": "Коммерческий центр \"Прогресс\"",
    "public_transport": "platform"
  }
},
{
  "type": "node",
  "id": 376339241,
  "lat": 47.0295265,
  "lon": 28.8018086,
  "tags": {
    "highway": "bus_stop",
    "name": "V. Belinskii",
    "name:ru": "В. Белинский",
    "public_transport": "platform"
  }
},
{
  "type": "node",
  "id": 376339243,
  "lat": 47.0298089,
  "lon": 28.8020480,
  "tags": {
    "highway": "bus_stop",
    "name": "str. Ion Creangă",
    "name:ru": "ул. Иона Крянгэ",
    "public_transport": "platform"
  }
},
{
  "type": "node",
  "id": 376339245,
  "lat": 47.0049378,
  "lon": 28.8674495,
  "tags": {
    "highway": "bus_stop",
    "name": "str. Dimineții",
    "name:ru": "ул. Диминеций",
    "public_transport": "platform"
  }
},
{
  "type": "node",
  "id": 376339247,
  "lat": 47.0094149,
  "lon": 28.8615212,
  "tags": {
    "highway": "bus_stop",
    "name": "str. Muncești",
    "name:ru": "Мунчештская ул.",
    "public_transport": "platform"
  }
},
{
  "type": "node",
  "id": 376339250,
  "lat": 47.0221449,
  "lon": 28.8098131,
  "tags": {
    "bus": "yes",
    "highway": "bus_stop",
    "name": "str. Eugen Coca",
    "name:ru": "ул. Евгений Кока",
    "operator": "3, 4",
    "public_transport": "platform"
  }
},
{
  "type": "node",
  "id": 376339254,
  "lat": 47.0256077,
  "lon": 28.7927042,
  "tags": {
    "highway": "bus_stop",
    "name": "str. Constituției",
    "name:ru": "ул. Конституции",
    "public_transport": "platform"
  }
},
{
  "type": "node",
  "id": 376339255,
  "lat": 47.0244211,
  "lon": 28.7926284,
  "tags": {
    "highway": "bus_stop",
    "name": "str. Constituției",
    "name:ru": "ул. Конституции",
    "public_transport": "platform"
  }
},
{
  "type": "node",
  "id": 376339258,
  "lat": 46.9858479,
  "lon": 28.8912688,
  "tags": {
    "highway": "bus_stop",
    "name": "str. Paul Gore",
    "public_transport": "platform"
  }
},
{
  "type": "node",
  "id": 376339260,
  "lat": 46.9852440,
  "lon": 28.8923432,
  "tags": {
    "highway": "bus_stop",
    "name": "str. Paul Gore",
    "public_transport": "platform"
  }
},
{
  "type": "node",
  "id": 376339262,
  "lat": 46.9931871,
  "lon": 28.8799737,
  "tags": {
    "highway": "bus_stop",
    "name": "str. Tomiș",
    "name:ru": "ул. Томиш",
    "public_transport": "platform"
  }
},
{
  "type": "node",
  "id": 376339264,
  "lat": 46.9911538,
  "lon": 28.8833850,
  "tags": {
    "highway": "bus_stop",
    "name": "Asociaţia \"Carmez\"",
    "name:ru": "Ассоциация \"Кармез\"",
    "public_transport": "platform"
  }
},
{
  "type": "node",
  "id": 376339266,
  "lat": 46.9977852,
  "lon": 28.8749422,
  "tags": {
    "highway": "bus_stop",
    "name": "str. Căuşeni",
    "name:ru": "Каушанская ул.",
    "public_transport": "platform"
  }
},
{
  "type": "node",
  "id": 376339268,
  "lat": 46.9974987,
  "lon": 28.8749532,
  "tags": {
    "highway": "bus_stop",
    "name": "str. Căușeni",
    "name:ru": "Каушанская ул.",
    "public_transport": "platform"
  }
},
{
  "type": "node",
  "id": 376339270,
  "lat": 47.0055724,
  "lon": 28.8672402,
  "tags": {
    "highway": "bus_stop",
    "name": "str. Dimineții",
    "name:ru": "ул. Диминеций",
    "public_transport": "platform"
  }
},
{
  "type": "node",
  "id": 376339274,
  "lat": 47.0195775,
  "lon": 28.8397255,
  "tags": {
    "bus": "yes",
    "highway": "bus_stop",
    "name": "str. Armenească",
    "name:ru": "Армянская ул.",
    "public_transport": "platform"
  }
},
{
  "type": "node",
  "id": 376339276,
  "lat": 47.0268063,
  "lon": 28.8293435,
  "tags": {
    "bus": "yes",
    "highway": "bus_stop",
    "name": "Teatrul Național de Operă și Balet „Maria Bieșu”",
    "name:ru": "Национальный театр оперы и балета им. Марии Биешу",
    "public_transport": "platform"
  }
},
{
  "type": "node",
  "id": 376339280,
  "lat": 47.0294757,
  "lon": 28.8390869,
  "tags": {
    "highway": "bus_stop",
    "name": "str. Eugen Doga",
    "name:ru": "ул. Евгения Доги",
    "public_transport": "platform"
  }
},
{
  "type": "node",
  "id": 376339282,
  "lat": 47.0191626,
  "lon": 28.8502343,
  "tags": {
    "highway": "bus_stop",
    "name": "bd. Dimitrie Cantemir",
    "name:ru": "пр-т Дмитрия Кантемира",
    "public_transport": "platform"
  }
},
{
  "type": "node",
  "id": 376339284,
  "lat": 47.0279511,
  "lon": 28.8401882,
  "tags": {
    "bus": "yes",
    "highway": "bus_stop",
    "name": "str. Cosmonauților",
    "name:ru": "ул. Космонавтов",
    "public_transport": "platform"
  }
},
{
  "type": "node",
  "id": 376339286,
  "lat": 46.9825020,
  "lon": 28.8972049,
  "tags": {
    "highway": "bus_stop",
    "public_transport": "platform"
  }
},
{
  "type": "node",
  "id": 376339292,
  "lat": 47.0367799,
  "lon": 28.8413810,
  "tags": {
    "highway": "bus_stop"
  }
},
{
  "type": "node",
  "id": 376339294,
  "lat": 47.0376771,
  "lon": 28.8405247,
  "tags": {
    "highway": "bus_stop"
  }
},
{
  "type": "node",
  "id": 376339297,
  "lat": 47.0212032,
  "lon": 28.8560837,
  "tags": {
    "highway": "bus_stop",
    "name": "str. Ismail",
    "name:ru": "ул. Измаил",
    "public_transport": "platform"
  }
},
{
  "type": "node",
  "id": 376339298,
  "lat": 47.0164666,
  "lon": 28.8565029,
  "tags": {
    "highway": "bus_stop",
    "public_transport": "platform"
  }
},
{
  "type": "node",
  "id": 376339301,
  "lat": 47.0146279,
  "lon": 28.8552708,
  "tags": {
    "highway": "bus_stop",
    "name": "Hotel Cosmos",
    "name:ru": "Гостиница «Космос»",
    "public_transport": "platform"
  }
},
{
  "type": "node",
  "id": 376339304,
  "lat": 47.0145921,
  "lon": 28.8548825,
  "tags": {
    "highway": "bus_stop",
    "name": "Hotel Cosmos",
    "name:ru": "Гостиница «Космос»",
    "public_transport": "platform"
  }
},
{
  "type": "node",
  "id": 376339305,
  "lat": 47.0316075,
  "lon": 28.8217696,
  "tags": {
    "bus": "yes",
    "highway": "bus_stop",
    "name": "str. Toma Ciorbă",
    "name:ru": "ул. Тома Чорбэ",
    "public_transport": "platform"
  }
},
{
  "type": "node",
  "id": 376339308,
  "lat": 47.0327087,
  "lon": 28.8897008,
  "tags": {
    "highway": "bus_stop",
    "name": "str. Vadul lui Vodă",
    "name:ru": "Вадул-луй-Водская ул.",
    "public_transport": "platform"
  }
},
{
  "type": "node",
  "id": 376339316,
  "lat": 47.0480609,
  "lon": 28.8702773,
  "tags": {
    "highway": "bus_stop",
    "name": "str. Miron Costin",
    "name:ru": "ул. Мирона Костина"
  }
},
{
  "type": "node",
  "id": 376339319,
  "lat": 47.0420576,
  "lon": 28.8680364,
  "tags": {
    "highway": "bus_stop",
    "name": "str. Alecu Russo 20",
    "name:ru": "ул. Алеку Руссо 20"
  }
},
{
  "type": "node",
  "id": 376339320,
  "lat": 47.0397070,
  "lon": 28.8593514,
  "tags": {
    "highway": "bus_stop",
    "name": "str. Kiev",
    "name:ru": "ул. Киевская",
    "public_transport": "platform",
    "shelter": "yes",
    "tactile_paving": "no"
  }
},
{
  "type": "node",
  "id": 376339323,
  "lat": 47.0387472,
  "lon": 28.8581900,
  "tags": {
    "highway": "bus_stop",
    "name": "str. Kiev",
    "name:ru": "Киевская ул.",
    "public_transport": "platform",
    "shelter": "yes",
    "tactile_paving": "no"
  }
},
{
  "type": "node",
  "id": 376339324,
  "lat": 47.0542585,
  "lon": 28.8498929,
  "tags": {
    "highway": "bus_stop",
    "name": "str. Calea Orheiului",
    "name:ru": "ул. Каля Орхеюлуй",
    "public_transport": "platform"
  }
},
{
  "type": "node",
  "id": 376339327,
  "lat": 47.0390804,
  "lon": 28.8035038,
  "tags": {
    "highway": "bus_stop",
    "name": "Asociația \"Zorile\"",
    "name:ru": "Ассоциация \"Зориле\"",
    "public_transport": "platform"
  }
},
{
  "type": "node",
  "id": 376339329,
  "lat": 47.0615357,
  "lon": 28.8449805,
  "tags": {
    "bench": "yes",
    "bus": "yes",
    "highway": "bus_stop",
    "name": "str. Socoleni",
    "name:ru": "ул. Соколень",
    "public_transport": "platform",
    "shelter": "yes"
  }
},
{
  "type": "node",
  "id": 376339331,
  "lat": 47.0483084,
  "lon": 28.8259733,
  "tags": {
    "highway": "bus_stop",
    "name": "Baza de Transport Auto nr. 31",
    "name:ru": "Автобаза №31",
    "public_transport": "platform"
  }
},
{
  "type": "node",
  "id": 376339333,
  "lat": 47.0592303,
  "lon": 28.8113700,
  "tags": {
    "highway": "bus_stop",
    "name": "Vasile Harea",
    "name:ru": "Василе Харя",
    "public_transport": "platform"
  }
},
{
  "type": "node",
  "id": 376339335,
  "lat": 47.0551510,
  "lon": 28.8160125,
  "tags": {
    "highway": "bus_stop",
    "name": "Substaţia de Tracţiune nr. 55",
    "public_transport": "platform"
  }
},
{
  "type": "node",
  "id": 376339337,
  "lat": 47.0688230,
  "lon": 28.8323003,
  "tags": {
    "bus": "yes",
    "highway": "bus_stop",
    "name": "Cimitirul \"Sf. Lazăr\"",
    "name:ru": "Кладбище Святого Лазаря",
    "public_transport": "platform"
  }
},
{
  "type": "node",
  "id": 376339339,
  "lat": 47.0687338,
  "lon": 28.8320127,
  "tags": {
    "bus": "yes",
    "highway": "bus_stop",
    "name": "Cimitirul \"Sf. Lazăr\"",
    "name:ru": "Кладбище Святого Лазаря",
    "public_transport": "platform"
  }
},
{
  "type": "node",
  "id": 376339341,
  "lat": 47.0126688,
  "lon": 28.8875133,
  "tags": {
    "highway": "bus_stop",
    "name": "Uzina de frigidere",
    "name:ru": "Завод холодильников",
    "public_transport": "platform"
  }
},
{
  "type": "node",
  "id": 376339343,
  "lat": 46.9934312,
  "lon": 28.8520295,
  "tags": {
    "highway": "bus_stop",
    "name": "str. Fulgulești",
    "name:ru": "ул. Фулгулешть",
    "public_transport": "platform"
  }
},
{
  "type": "node",
  "id": 376339346,
  "lat": 47.0340148,
  "lon": 28.8920375,
  "tags": {
    "highway": "bus_stop",
    "name": "str. Vadul lui Vodă",
    "name:ru": "Вадул-луй-Водская ул.",
    "public_transport": "platform"
  }
},
{
  "type": "node",
  "id": 376339347,
  "lat": 47.0206744,
  "lon": 28.8884278,
  "tags": {
    "highway": "bus_stop",
    "name": "Centrul Comercial \"Supraten\"",
    "name:ru": "Коммерческий центр \"Супратен\"",
    "public_transport": "platform"
  }
},
{
  "type": "node",
  "id": 376339350,
  "lat": 47.0355636,
  "lon": 28.8617721,
  "tags": {
    "highway": "bus_stop",
    "name": "Dumitru Rîşcanu",
    "name:ru": "Дмитрий Рышкану",
    "public_transport": "platform"
  }
},
{
  "type": "node",
  "id": 376339351,
  "lat": 47.0309278,
  "lon": 28.8635815,
  "tags": {
    "highway": "bus_stop",
    "name": "Florării",
    "name:ru": "Флорэрь",
    "public_transport": "platform"
  }
},
{
  "type": "node",
  "id": 376339354,
  "lat": 47.0443288,
  "lon": 28.8322389,
  "tags": {
    "highway": "bus_stop",
    "name": "Mihai Viteazul",
    "name:ru": "ул. Михай Витязул",
    "public_transport": "platform"
  }
},
{
  "type": "node",
  "id": 376339355,
  "lat": 47.0351231,
  "lon": 28.8622037,
  "tags": {
    "highway": "bus_stop",
    "name": "Dumitru Rîşcanu",
    "name:ru": "Дмитрий Рышкану",
    "public_transport": "platform"
  }
},
{
  "type": "node",
  "id": 376339362,
  "lat": 46.9744520,
  "lon": 28.8677456,
  "tags": {
    "highway": "bus_stop",
    "name": "Grădina Zoologică",
    "name:ru": "Зоопарк",
    "public_transport": "platform"
  }
},
{
  "type": "node",
  "id": 376339365,
  "lat": 46.9746272,
  "lon": 28.8674391,
  "tags": {
    "bus": "yes",
    "highway": "bus_stop",
    "name": "Grădina Zoologică",
    "name:ru": "Зоопарк",
    "public_transport": "platform"
  }
},
{
  "type": "node",
  "id": 376339366,
  "lat": 46.9740620,
  "lon": 28.8594550,
  "tags": {
    "bus": "yes",
    "description": "Autobuzul 3, microbuzul 154",
    "highway": "bus_stop",
    "name": "str. Valea Crucii",
    "name:ru": "ул. Валя Кручий",
    "public_transport": "platform"
  }
},
{
  "type": "node",
  "id": 376339369,
  "lat": 46.9743801,
  "lon": 28.8603004,
  "tags": {
    "description": "rutele 3, 154, 166",
    "highway": "bus_stop",
    "name": "str. Valea Crucii",
    "name:ru": "ул. Валя Кручий",
    "public_transport": "platform"
  }
},
{
  "type": "node",
  "id": 376339370,
  "lat": 46.9899098,
  "lon": 28.8452534,
  "tags": {
    "highway": "bus_stop",
    "name": "Colegiul de Muzică \"Ștefan Neaga\"",
    "name:ru": "Музыкальный колледж им. Штефана Няги",
    "public_transport": "platform"
  }
},
{
  "type": "node",
  "id": 376339373,
  "lat": 46.9758155,
  "lon": 28.8358484,
  "tags": {
    "highway": "bus_stop",
    "name": "Institutul Ştiinţifico–Practic",
    "name:ru": "Научно-практический институт",
    "public_transport": "platform"
  }
},
{
  "type": "node",
  "id": 376339379,
  "lat": 47.0166431,
  "lon": 28.8474454,
  "tags": {
    "highway": "bus_stop",
    "name": "str. Ismail",
    "name:ru": "Измаильская ул.",
    "public_transport": "platform"
  }
},
{
  "type": "node",
  "id": 376339381,
  "lat": 47.0080506,
  "lon": 28.8303398,
  "tags": {
    "highway": "bus_stop",
    "name": "Pan Halippa",
    "name:ru": "Пан Халиппа",
    "public_transport": "platform"
  }
},
{
  "type": "node",
  "id": 376339384,
  "lat": 47.0073840,
  "lon": 28.8281823,
  "tags": {
    "highway": "bus_stop",
    "name": "Piaţa Pan Halippa",
    "name:ru": "Кинотеатр \"Гаудеамус\"",
    "public_transport": "platform"
  }
},
{
  "type": "node",
  "id": 376339385,
  "lat": 46.9775585,
  "lon": 28.8452958,
  "tags": {
    "bus": "yes",
    "highway": "bus_stop",
    "name": "Bulevardul Traian",
    "name:ru": "Бульвар Траяна",
    "public_transport": "platform"
  }
},
{
  "type": "node",
  "id": 376339388,
  "lat": 46.9725233,
  "lon": 28.8543609,
  "tags": {
    "highway": "bus_stop",
    "name": "S.D.T.",
    "public_transport": "platform"
  }
},
{
  "type": "node",
  "id": 376339389,
  "lat": 46.9726996,
  "lon": 28.8542941,
  "tags": {
    "highway": "bus_stop",
    "name": "S.D.T.",
    "public_transport": "platform"
  }
},
{
  "type": "node",
  "id": 376339392,
  "lat": 47.0273212,
  "lon": 28.8788499,
  "tags": {
    "highway": "bus_stop",
    "name": "Budeşti",
    "name:ru": "Будешты",
    "public_transport": "platform"
  }
},
{
  "type": "node",
  "id": 376339394,
  "lat": 47.0271744,
  "lon": 28.8789851,
  "tags": {
    "highway": "bus_stop",
    "name": "Budeşti",
    "name:ru": "Будешты",
    "public_transport": "platform"
  }
},
{
  "type": "node",
  "id": 376339396,
  "lat": 47.0114764,
  "lon": 28.8881026,
  "tags": {
    "highway": "bus_stop",
    "name": "str. Voluntarilor",
    "name:ru": "ул. Волунтарилор (Добровольцев)",
    "public_transport": "platform"
  }
},
{
  "type": "node",
  "id": 376339398,
  "lat": 47.0129643,
  "lon": 28.8864942,
  "tags": {
    "highway": "bus_stop",
    "name": "Asociaţia \"Introscop\"",
    "name:ru": "Ассоциация \"Интроскоп\"",
    "public_transport": "platform"
  }
},
{
  "type": "node",
  "id": 376339400,
  "lat": 47.0434316,
  "lon": 28.8977905,
  "tags": {
    "highway": "bus_stop",
    "name": "str. Nicolae Milescu Spataru",
    "name:ru": "ул. Николае Милеску Спатару",
    "public_transport": "platform"
  }
},
{
  "type": "node",
  "id": 376339403,
  "lat": 47.0362593,
  "lon": 28.8226288,
  "tags": {
    "bus": "yes",
    "highway": "bus_stop",
    "name": "str. Columna",
    "name:ru": "ул. Колумна",
    "public_transport": "platform"
  }
},
{
  "type": "node",
  "id": 376339405,
  "lat": 47.0333988,
  "lon": 28.8190197,
  "tags": {
    "bus": "yes",
    "highway": "bus_stop",
    "name": "Universitatea de Stat de Medicină și Farmacie",
    "name:ru": "Государственный университет медицины и фармакологии",
    "public_transport": "platform"
  }
},
{
  "type": "node",
  "id": 376339410,
  "lat": 47.0188587,
  "lon": 28.8264821,
  "tags": {
    "bus": "yes",
    "highway": "bus_stop",
    "name": "Str. Pușkin",
    "name:ru": "ул. Пушкина",
    "public_transport": "platform"
  }
},
{
  "type": "node",
  "id": 376339411,
  "lat": 47.0218424,
  "lon": 28.8005773,
  "tags": {
    "highway": "bus_stop"
  }
},
{
  "type": "node",
  "id": 376339414,
  "lat": 46.9981676,
  "lon": 28.8578176,
  "tags": {
    "highway": "bus_stop",
    "name": "Piața Decebal",
    "name:ru": "площадь Дечебал",
    "public_transport": "platform"
  }
},
{
  "type": "node",
  "id": 376339415,
  "lat": 46.9757688,
  "lon": 28.8360078,
  "tags": {
    "highway": "bus_stop",
    "name": "Institutul Ştiinţifico–Practic",
    "name:ru": "Научно-практический институт",
    "public_transport": "platform"
  }
},
{
  "type": "node",
  "id": 376339418,
  "lat": 47.0247992,
  "lon": 28.8877350,
  "tags": {
    "highway": "bus_stop",
    "name": "Parcul de Troleibuze nr.3",
    "name:ru": "Парк Троллейбусов № 3",
    "public_transport": "platform"
  }
},
{
  "type": "node",
  "id": 376339419,
  "lat": 47.0324660,
  "lon": 28.8886242,
  "tags": {
    "highway": "bus_stop",
    "name": "str. Vadul lui Vodă",
    "name:ru": "Вадул-луй-Водская ул.",
    "public_transport": "platform"
  }
},
{
  "type": "node",
  "id": 376339422,
  "lat": 47.0025608,
  "lon": 28.8181365,
  "tags": {
    "highway": "bus_stop",
    "name": "str. Dokuciaev",
    "name:ru": "ул. Докучаева",
    "public_transport": "platform"
  }
},
{
  "type": "node",
  "id": 376339423,
  "lat": 47.0069649,
  "lon": 28.8933115,
  "tags": {
    "highway": "bus_stop",
    "name": "Otovasca",
    "name:ru": "Отоваска",
    "public_transport": "platform"
  }
},
{
  "type": "node",
  "id": 376339430,
  "lat": 47.0494550,
  "lon": 28.8833891,
  "tags": {
    "highway": "bus_stop",
    "name": "str. Igor Vieru",
    "name:ru": "ул. Игорь Виеру",
    "public_transport": "platform"
  }
},
{
  "type": "node",
  "id": 376339432,
  "lat": 47.0493602,
  "lon": 28.8836606,
  "tags": {
    "highway": "bus_stop",
    "name": "str. Mihai Sadoveanu",
    "name:ro": "str. Igor Vieru",
    "name:ru": "ул. Игорь Виеру",
    "public_transport": "platform"
  }
},
{
  "type": "node",
  "id": 376339434,
  "lat": 47.0430585,
  "lon": 28.8914307,
  "tags": {
    "bench": "yes",
    "covered": "yes",
    "highway": "bus_stop",
    "name": "str. Petru Zadnipru",
    "name:ru": "ул. Петру Заднипру",
    "public_transport": "platform",
    "shelter": "yes"
  }
},
{
  "type": "node",
  "id": 376339437,
  "lat": 47.0438624,
  "lon": 28.8890451,
  "tags": {
    "highway": "bus_stop",
    "name": "str. Petru Zadnipru",
    "name:ru": "ул. Петру Заднипру",
    "public_transport": "platform"
  }
},
{
  "type": "node",
  "id": 376339441,
  "lat": 47.0472054,
  "lon": 28.8908978,
  "tags": {
    "bench": "yes",
    "covered": "yes",
    "highway": "bus_stop",
    "name": "Judecătoria sectorului Ciocana",
    "name:ru": "Суд сектора Чекан",
    "public_transport": "platform",
    "shelter": "yes"
  }
},
{
  "type": "node",
  "id": 376339443,
  "lat": 47.0465056,
  "lon": 28.8979934,
  "tags": {
    "highway": "bus_stop",
    "name": "Centrul civic",
    "name:ru": "Социальный центр",
    "public_transport": "platform"
  }
},
{
  "type": "node",
  "id": 376339445,
  "lat": 47.0517359,
  "lon": 28.8976547,
  "tags": {
    "highway": "bus_stop",
    "name": "str. Igor Vieru",
    "name:ru": "ул. Игоря Виеру",
    "public_transport": "platform"
  }
},
{
  "type": "node",
  "id": 376339447,
  "lat": 47.0434646,
  "lon": 28.8980674,
  "tags": {
    "highway": "bus_stop",
    "name": "str. Nicolae Milescu Spataru",
    "name:ru": "ул. Николае Милеску Спатару",
    "public_transport": "platform"
  }
},
{
  "type": "node",
  "id": 376339449,
  "lat": 47.0474521,
  "lon": 28.8977268,
  "tags": {
    "highway": "bus_stop",
    "name": "Centrul civic",
    "public_transport": "platform"
  }
},
{
  "type": "node",
  "id": 376339451,
  "lat": 47.0554840,
  "lon": 28.8978402,
  "tags": {
    "highway": "bus_stop",
    "name": "str. Ion Dumeniuc",
    "name:ru": "ул. Иона Думенюка",
    "public_transport": "platform"
  }
},
{
  "type": "node",
  "id": 376339453,
  "lat": 47.0507681,
  "lon": 28.8887773,
  "tags": {
    "highway": "bus_stop",
    "name": "bd. Mircea cel Bătrîn",
    "name:ru": "пр-т Мирча чел Бэтрын",
    "public_transport": "platform"
  }
},
{
  "type": "node",
  "id": 376339455,
  "lat": 47.0518562,
  "lon": 28.8979044,
  "tags": {
    "highway": "bus_stop",
    "name": "str. Igor Vieru",
    "name:ru": "ул. Игоря Виеру",
    "public_transport": "platform"
  }
},
{
  "type": "node",
  "id": 376339458,
  "lat": 47.0558309,
  "lon": 28.8974471,
  "tags": {
    "highway": "bus_stop",
    "name": "str. Ion Dumeniuc",
    "name:ru": "ул. Иона Думенюка",
    "public_transport": "platform"
  }
},
{
  "type": "node",
  "id": 376339462,
  "lat": 47.0019783,
  "lon": 28.8958751,
  "tags": {
    "bus": "yes",
    "highway": "bus_stop",
    "name": "str. Movileni",
    "name:ru": "ул. Мовилень",
    "public_transport": "platform"
  }
},
{
  "type": "node",
  "id": 376339463,
  "lat": 47.0249867,
  "lon": 28.7820573,
  "tags": {
    "bench": "yes",
    "covered": "yes",
    "highway": "bus_stop",
    "name": "Clinica Veterinară Republicană",
    "name:ru": "Республиканская ветеринарная клиника",
    "public_transport": "platform",
    "shelter": "yes"
  }
},
{
  "type": "node",
  "id": 376339467,
  "lat": 47.0201152,
  "lon": 28.8870976,
  "tags": {
    "highway": "bus_stop",
    "name": "Supraten",
    "name:ro": "Supraten",
    "name:ru": "Супратен",
    "public_transport": "platform"
  }
},
{
  "type": "node",
  "id": 376339469,
  "lat": 47.0153669,
  "lon": 28.8865764,
  "tags": {
    "highway": "bus_stop",
    "name": "Uzina \"MoldovaHidro-Maș\"",
    "name:ru": "Завод \"Молдова Гидромаш\"",
    "public_transport": "platform"
  }
},
{
  "type": "node",
  "id": 376339471,
  "lat": 47.0024983,
  "lon": 28.8957852,
  "tags": {
    "bus": "yes",
    "highway": "bus_stop",
    "name": "str. Movileni",
    "name:ru": "ул. Мовилень",
    "public_transport": "platform"
  }
},
{
  "type": "node",
  "id": 376339473,
  "lat": 47.0278580,
  "lon": 28.8891963,
  "tags": {
    "highway": "bus_stop",
    "name": "CET-2",
    "name:ru": "ТЭЦ-2",
    "public_transport": "platform"
  }
},
{
  "type": "node",
  "id": 376339479,
  "lat": 47.0329133,
  "lon": 28.8884006,
  "tags": {
    "highway": "bus_stop",
    "name": "str. Vadul lui Voda",
    "name:ru": "ул. Вадул-луй-Водская"
  }
},
{
  "type": "node",
  "id": 376339483,
  "lat": 47.0437967,
  "lon": 28.8825991,
  "tags": {
    "bench": "yes",
    "covered": "yes",
    "highway": "bus_stop",
    "name": "Petru Zadnipru",
    "name:ru": "ул. Петру Заднипру",
    "public_transport": "platform",
    "shelter": "yes"
  }
},
{
  "type": "node",
  "id": 376339486,
  "lat": 47.0441094,
  "lon": 28.8843079,
  "tags": {
    "bench": "yes",
    "covered": "yes",
    "highway": "bus_stop",
    "name": "str. Mihail Sadoveanu",
    "name:ro": "str. Mihail Sadoveanu",
    "name:ru": "ул. Михаила Садовяну",
    "public_transport": "platform",
    "shelter": "yes"
  }
},
{
  "type": "node",
  "id": 376339487,
  "lat": 47.0246226,
  "lon": 28.8888114,
  "tags": {
    "highway": "bus_stop",
    "name": "Parcul de Troleibuze nr.3",
    "name:ru": "Парк Троллейбусов № 3",
    "public_transport": "platform"
  }
},
{
  "type": "node",
  "id": 376339490,
  "lat": 47.0247505,
  "lon": 28.7824549,
  "tags": {
    "highway": "bus_stop",
    "name": "Clinica Veterinară Republicană",
    "name:ru": "Республиканская ветеринарная клиника",
    "public_transport": "platform"
  }
},
{
  "type": "node",
  "id": 376339494,
  "lat": 47.0029133,
  "lon": 28.8893467,
  "tags": {
    "highway": "bus_stop"
  }
},
{
  "type": "node",
  "id": 376339496,
  "lat": 46.9974728,
  "lon": 28.7838359,
  "tags": {
    "highway": "bus_stop",
    "name": "str. Sfânta Vineri",
    "public_transport": "platform"
  }
},
{
  "type": "node",
  "id": 376339500,
  "lat": 46.9999783,
  "lon": 28.7800054,
  "tags": {
    "highway": "bus_stop",
    "name": "str. M. Lermontov",
    "name:ru": "ул. М. Лермонтова",
    "public_transport": "platform"
  }
},
{
  "type": "node",
  "id": 376339518,
  "lat": 46.9950397,
  "lon": 28.7942615,
  "tags": {
    "highway": "bus_stop",
    "name": "str. Ialoveni",
    "name:ru": "Яловенская ул.",
    "public_transport": "platform"
  }
},
{
  "type": "node",
  "id": 376339523,
  "lat": 46.9893307,
  "lon": 28.9082520,
  "tags": {
    "highway": "bus_stop",
    "name": "Magazin Stroma",
    "name:ru": "Магазин Строма"
  }
},
{
  "type": "node",
  "id": 376339533,
  "lat": 47.0255663,
  "lon": 28.7792937,
  "tags": {
    "highway": "bus_stop",
    "name": "Uzina Mecanică Experimentală",
    "name:ru": "Экспериментальный механический завод",
    "public_transport": "platform"
  }
},
{
  "type": "node",
  "id": 376339536,
  "lat": 47.0256747,
  "lon": 28.7778274,
  "tags": {
    "bus": "yes",
    "highway": "bus_stop",
    "name": "Uzina Experimentală",
    "name:ru": "Экспериментальный механический завод",
    "public_transport": "platform"
  }
},
{
  "type": "node",
  "id": 376339542,
  "lat": 46.9957160,
  "lon": 28.8009761,
  "tags": {
    "highway": "bus_stop",
    "name": "Schinoasa-1",
    "name:ru": "Скиноаса-1",
    "public_transport": "platform"
  }
},
{
  "type": "node",
  "id": 376339544,
  "lat": 46.9964113,
  "lon": 28.8014944,
  "tags": {
    "highway": "bus_stop",
    "name": "Sihastrului",
    "name:ru": "ул. Сихаструлуй",
    "public_transport": "platform"
  }
},
{
  "type": "node",
  "id": 376339546,
  "lat": 46.9943773,
  "lon": 28.7965228,
  "tags": {
    "highway": "bus_stop",
    "name": "Ialoveni",
    "name:ru": "Яловены",
    "public_transport": "platform"
  }
},
{
  "type": "node",
  "id": 376339551,
  "lat": 46.9948955,
  "lon": 28.8128020,
  "tags": {
    "highway": "bus_stop",
    "name": "Campusul Academic",
    "name:ru": "Академический Городок",
    "public_transport": "platform"
  }
},
{
  "type": "node",
  "id": 376339555,
  "lat": 46.9857591,
  "lon": 28.8320468,
  "tags": {
    "highway": "bus_stop",
    "name": "Spitalul pentru copii nr.3",
    "name:ru": "Детская клиническая больница №3",
    "public_transport": "platform"
  }
},
{
  "type": "node",
  "id": 376339558,
  "lat": 46.9813742,
  "lon": 28.8395871,
  "tags": {
    "highway": "bus_stop",
    "name": "str. Costiujeni",
    "name:ru": "Костюженская ул.",
    "public_transport": "platform"
  }
},
{
  "type": "node",
  "id": 376339561,
  "lat": 47.0015703,
  "lon": 28.8379869,
  "tags": {
    "highway": "bus_stop",
    "name": "str. Gheorghe Cașu",
    "name:ru": "ул. Георге Кашу",
    "public_transport": "platform"
  }
},
{
  "type": "node",
  "id": 376339563,
  "lat": 46.9908359,
  "lon": 28.8272551,
  "tags": {
    "highway": "bus_stop",
    "name": "Spitalul oncologic",
    "name:ru": "Онкологическая больница",
    "public_transport": "platform"
  }
},
{
  "type": "node",
  "id": 376339565,
  "lat": 46.9899788,
  "lon": 28.9086437,
  "tags": {
    "highway": "bus_stop",
    "name": "Stație de petrol",
    "name:en": "АГНКС Метан",
    "name:ru": "АГНКС Метан",
    "public_transport": "platform"
  }
},
{
  "type": "node",
  "id": 376339567,
  "lat": 46.9853660,
  "lon": 28.9056640,
  "tags": {
    "highway": "bus_stop",
    "name": "Calea Basarabiei",
    "name:ru": "Каля Басарабией (Бессарабская дорога)",
    "public_transport": "platform"
  }
},
{
  "type": "node",
  "id": 376339569,
  "lat": 46.9854094,
  "lon": 28.9062305,
  "tags": {
    "highway": "bus_stop",
    "name": "Calea Basarabiei",
    "name:ru": "Каля Басарабей (Бессарабская дорога)",
    "public_transport": "platform"
  }
},
{
  "type": "node",
  "id": 376339573,
  "lat": 47.0013201,
  "lon": 28.7773954,
  "tags": {
    "highway": "bus_stop",
    "name": "Academia de Administrare Publică",
    "name:en": "Public Administration Academy",
    "name:ru": "Институт им. Николая Димо",
    "public_transport": "platform"
  }
},
{
  "type": "node",
  "id": 376339575,
  "lat": 47.0003270,
  "lon": 28.7797425,
  "tags": {
    "highway": "bus_stop",
    "name": "str. M. Lermontov",
    "name:ru": "ул. М. Лермонтова",
    "public_transport": "platform"
  }
},
{
  "type": "node",
  "id": 376339577,
  "lat": 46.9849817,
  "lon": 28.7780982,
  "tags": {
    "highway": "bus_stop",
    "name": "Scinoasa",
    "name:ru": "Скиноаса",
    "public_transport": "platform"
  }
},
{
  "type": "node",
  "id": 376339579,
  "lat": 46.9922672,
  "lon": 28.7878476,
  "tags": {
    "highway": "bus_stop"
  }
},
{
  "type": "node",
  "id": 376339581,
  "lat": 46.9918108,
  "lon": 28.7892109,
  "tags": {
    "highway": "bus_stop",
    "name": "Gara Auto de Sud-Vest",
    "name:ru": "Юго-Западный автовокзал",
    "public_transport": "platform"
  }
},
{
  "type": "node",
  "id": 376339583,
  "lat": 46.9982602,
  "lon": 28.8066396,
  "tags": {
    "highway": "bus_stop",
    "name": "str. Pietrarilor",
    "public_transport": "platform"
  }
},
{
  "type": "node",
  "id": 376339585,
  "lat": 46.9916761,
  "lon": 28.7893361,
  "tags": {
    "highway": "bus_stop",
    "name": "Gara Auto de Sud-Vest",
    "name:ru": "Юго-Западная автостанция",
    "public_transport": "platform"
  }
},
{
  "type": "node",
  "id": 376370980,
  "lat": 46.9898983,
  "lon": 28.8208977,
  "tags": {
    "highway": "bus_stop"
  }
},
{
  "type": "node",
  "id": 391009648,
  "lat": 47.0201648,
  "lon": 28.8079400,
  "tags": {
    "bench": "no",
    "bus": "yes",
    "highway": "bus_stop",
    "name:en": "Bus Station 138",
    "name:ru": "Остановка маршрутки 138",
    "public_transport": "platform",
    "shelter": "no"
  }
},
{
  "type": "node",
  "id": 449672988,
  "lat": 47.0383077,
  "lon": 28.8253542,
  "tags": {
    "highway": "bus_stop",
    "name": "str. Albișoara",
    "name:ru": "ул. Албишоара",
    "old_name": "ул. Набережная",
    "public_transport": "platform"
  }
},
{
  "type": "node",
  "id": 449672992,
  "lat": 47.0443210,
  "lon": 28.8326950,
  "tags": {
    "highway": "bus_stop",
    "name": "str. Petricani 88",
    "name:ru": "Петриканская ул.",
    "public_transport": "platform"
  }
},
{
  "type": "node",
  "id": 450993216,
  "lat": 46.9854249,
  "lon": 28.8580556,
  "tags": {
    "highway": "bus_stop",
    "name": "Bd. Dacia",
    "name:ro": "Bd. Dacia",
    "name:ru": "Бульвар Дачия",
    "public_transport": "platform"
  }
},
{
  "type": "node",
  "id": 450993217,
  "lat": 46.9854534,
  "lon": 28.8561658,
  "tags": {
    "highway": "bus_stop",
    "name": "Bd. Traian",
    "name:ro": "Bd. Traian",
    "name:ru": "бульвар Траяна",
    "public_transport": "platform"
  }
},
{
  "type": "node",
  "id": 460415269,
  "lat": 46.9956325,
  "lon": 28.8324564,
  "tags": {
    "highway": "bus_stop",
    "name": "Spitalul Clinic Republican",
    "name:ru": "Республиканская клиническая больница",
    "public_transport": "platform"
  }
},
{
  "type": "node",
  "id": 460415272,
  "lat": 46.9951325,
  "lon": 28.8323298,
  "tags": {
    "bus": "yes",
    "highway": "bus_stop",
    "name": "Spitalul Clinic Republican",
    "name:ru": "Республиканская клиническая больница",
    "public_transport": "platform"
  }
},
{
  "type": "node",
  "id": 460415273,
  "lat": 46.9907561,
  "lon": 28.8274330,
  "tags": {
    "highway": "bus_stop",
    "name": "Spitalul oncologic",
    "name:ru": "Онкологическая больница",
    "public_transport": "platform"
  }
},
{
  "type": "node",
  "id": 461062053,
  "lat": 47.0379329,
  "lon": 28.8100160,
  "tags": {
    "highway": "bus_stop",
    "name": "Piața Dmitrie Cantemir",
    "name:ru": "пл. Дмитрие Кантемир",
    "public_transport": "platform"
  }
},
{
  "type": "node",
  "id": 461062058,
  "lat": 47.0428973,
  "lon": 28.7941984,
  "tags": {
    "highway": "bus_stop",
    "name": "Bariera Sculeni",
    "name:ru": "Скулянский барьер",
    "public_transport": "platform"
  }
},
{
  "type": "node",
  "id": 461062059,
  "lat": 47.0461749,
  "lon": 28.7832239,
  "tags": {
    "highway": "bus_stop",
    "name": "str. Ghidighici",
    "name:ro": "str. Ghidighici",
    "name:ru": "ул. Гидигич",
    "public_transport": "platform"
  }
},
{
  "type": "node",
  "id": 461062061,
  "lat": 47.0289503,
  "lon": 28.8257194,
  "tags": {
    "bus": "yes",
    "highway": "bus_stop",
    "name": "str. Serghei Lazo",
    "name:ru": "ул. Сергея Лазо",
    "public_transport": "platform"
  }
},
{
  "type": "node",
  "id": 461604329,
  "lat": 47.0116439,
  "lon": 28.8375161,
  "tags": {
    "highway": "bus_stop",
    "name": "Stadionul Republican",
    "name:ru": "Республиканский стадион"
  }
},
{
  "type": "node",
  "id": 461604330,
  "lat": 47.0320160,
  "lon": 28.8427908,
  "tags": {
    "bus": "yes",
    "highway": "bus_stop",
    "name": "str. Romană",
    "name:ru": "ул. Романэ",
    "public_transport": "platform"
  }
},
{
  "type": "node",
  "id": 461604331,
  "lat": 47.0323655,
  "lon": 28.8442191,
  "tags": {
    "highway": "bus_stop",
    "name": "str. Romană",
    "public_transport": "platform"
  }
},
{
  "type": "node",
  "id": 461604332,
  "lat": 47.0441294,
  "lon": 28.8626332,
  "tags": {
    "bus": "yes",
    "highway": "bus_stop",
    "name": "str. Alecu Russo",
    "name:ru": "ул. Алеку Руссо",
    "public_transport": "platform"
  }
},
{
  "type": "node",
  "id": 461604333,
  "lat": 47.0549227,
  "lon": 28.8651157,
  "tags": {
    "highway": "bus_stop",
    "name": "str. Matei Basarab",
    "name:ro": "str. Matei Basarab 13/5",
    "name:ru": "ул. Матей Басараб",
    "public_transport": "platform"
  }
},
{
  "type": "node",
  "id": 461604334,
  "lat": 47.0554695,
  "lon": 28.8658568,
  "tags": {
    "highway": "bus_stop",
    "name": "str. Matei Basarab",
    "name:ru": "ул. Матей Басараб",
    "public_transport": "platform"
  }
},
{
  "type": "node",
  "id": 461612416,
  "lat": 46.9872003,
  "lon": 28.8564300,
  "tags": {
    "highway": "bus_stop",
    "name": ".",
    "name:ru": "бульвар Дечебал",
    "public_transport": "platform"
  }
},
{
  "type": "node",
  "id": 461612418,
  "lat": 46.9891000,
  "lon": 28.8580206,
  "tags": {
    "highway": "bus_stop",
    "name": "str. Brâncuși",
    "name:ru": "ул. Брынкушь",
    "public_transport": "platform"
  }
},
{
  "type": "node",
  "id": 461612419,
  "lat": 46.9927094,
  "lon": 28.8595954,
  "tags": {
    "highway": "bus_stop",
    "name": "str. Zelinski",
    "name:ru": "ул. Зелинского",
    "public_transport": "platform"
  }
},
{
  "type": "node",
  "id": 461612421,
  "lat": 46.9929352,
  "lon": 28.8583066,
  "tags": {
    "highway": "bus_stop",
    "name": "str. Zelinschi",
    "name:ru": "ул. Зелинского",
    "public_transport": "platform"
  }
},
{
  "type": "node",
  "id": 461612426,
  "lat": 46.9939239,
  "lon": 28.8475395,
  "tags": {
    "highway": "bus_stop",
    "name": "bd. Dacia",
    "name:ru": "бульвар Дачия",
    "public_transport": "platform"
  }
},
{
  "type": "node",
  "id": 461612428,
  "lat": 47.0163267,
  "lon": 28.8461198,
  "tags": {
    "highway": "bus_stop",
    "name": "Bd. Ștefan cel Mare și Sfânt",
    "name:ru": "бульвар Штефана чел Маре",
    "public_transport": "platform"
  }
},
{
  "type": "node",
  "id": 462242807,
  "lat": 47.0236398,
  "lon": 28.8179673,
  "tags": {
    "bus": "yes",
    "highway": "bus_stop",
    "name": "Universitatea de Arte",
    "name:ru": "Университет Искусств",
    "public_transport": "platform"
  }
},
{
  "type": "node",
  "id": 463180464,
  "lat": 47.0318639,
  "lon": 28.7827047,
  "tags": {
    "highway": "bus_stop",
    "name": "str. Paris",
    "name:ru": "Парижская ул.",
    "public_transport": "platform"
  }
},
{
  "type": "node",
  "id": 463180465,
  "lat": 47.0326835,
  "lon": 28.7816851,
  "tags": {
    "highway": "bus_stop",
    "name": "str. Paris",
    "name:ru": "Парижская ул.",
    "public_transport": "platform"
  }
},
{
  "type": "node",
  "id": 463180466,
  "lat": 47.0296173,
  "lon": 28.7879603,
  "tags": {
    "highway": "bus_stop",
    "name": "str. Ion Pelivan",
    "name:ru": "ул. Ион Пеливан",
    "public_transport": "platform"
  }
},
{
  "type": "node",
  "id": 463180467,
  "lat": 47.0349880,
  "lon": 28.7764833,
  "tags": {
    "highway": "bus_stop",
    "name": "str. Onisifor Ghibu",
    "name:ru": "ул. Онисифор Гибу",
    "public_transport": "platform"
  }
},
{
  "type": "node",
  "id": 463186781,
  "lat": 46.9817325,
  "lon": 28.8370757,
  "tags": {
    "highway": "bus_stop",
    "name": "str. Costiujeni",
    "name:ru": "Костюженская ул.",
    "public_transport": "platform"
  }
},
{
  "type": "node",
  "id": 464512099,
  "lat": 46.9778163,
  "lon": 28.8539949,
  "tags": {
    "bus": "yes",
    "highway": "bus_stop",
    "name": "str. Independenţei",
    "name:ru": "ул. Индепенденцей",
    "public_transport": "platform"
  }
},
{
  "type": "node",
  "id": 464512110,
  "lat": 46.9835425,
  "lon": 28.8778861,
  "tags": {
    "highway": "bus_stop",
    "name": "Asociaţia \"Franzeluţa\"",
    "name:ru": "ул. Буребиста",
    "public_transport": "platform"
  }
},
{
  "type": "node",
  "id": 470223492,
  "lat": 46.9815371,
  "lon": 28.8600081,
  "tags": {
    "highway": "bus_stop",
    "name": "bd. Cuza Vodă",
    "name:ru": "бульвар Куза Водэ",
    "public_transport": "platform"
  }
},
{
  "type": "node",
  "id": 527885215,
  "lat": 47.0381312,
  "lon": 28.8845789,
  "tags": {
    "bench": "yes",
    "bus": "yes",
    "covered": "yes",
    "highway": "bus_stop",
    "name": "str. Mihail Sadoveanu",
    "name:ro": "str. Mihail Sadoveanu",
    "name:ru": "ул. Михаил Садовяну",
    "public_transport": "platform",
    "shelter": "yes"
  }
},
{
  "type": "node",
  "id": 613009714,
  "lat": 47.0382456,
  "lon": 28.8256815,
  "tags": {
    "highway": "bus_stop",
    "name": "str. Albișoara",
    "name:ru": "ул. Албишоара",
    "old_name": "ул. Набережная",
    "public_transport": "platform"
  }
},
{
  "type": "node",
  "id": 617877247,
  "lat": 46.9737949,
  "lon": 28.8484686,
  "tags": {
    "highway": "bus_stop",
    "name": "Cuza Vodă",
    "name:ro": "Cuza Vodă",
    "name:ru": "ул. Куза Водэ",
    "public_transport": "platform"
  }
},
{
  "type": "node",
  "id": 633621356,
  "lat": 47.0149858,
  "lon": 28.8409863,
  "tags": {
    "highway": "bus_stop",
    "name": "str. 31 August 1989",
    "name:ru": "ул. 31 Августа 1989"
  }
},
{
  "type": "node",
  "id": 633621362,
  "lat": 47.0155197,
  "lon": 28.8409445,
  "tags": {
    "highway": "bus_stop",
    "name": "str. 31 August 1989",
    "name:ru": "ул. 31 Августа 1989",
    "public_transport": "platform"
  }
},
{
  "type": "node",
  "id": 633621366,
  "lat": 47.0232259,
  "lon": 28.8639933,
  "tags": {
    "highway": "bus_stop",
    "name": "Gara de Nord",
    "name:ru": "\"Северный\" автовокзал",
    "public_transport": "platform"
  }
},
{
  "type": "node",
  "id": 633621369,
  "lat": 47.0230406,
  "lon": 28.8640608,
  "tags": {
    "highway": "bus_stop",
    "name": "Gara de Nord",
    "name:ru": "\"Северный\" автовокзал",
    "public_transport": "platform"
  }
},
{
  "type": "node",
  "id": 633630323,
  "lat": 47.0378918,
  "lon": 28.8893437,
  "tags": {
    "bench": "yes",
    "covered": "yes",
    "highway": "bus_stop",
    "name": "str. Ginta Latină",
    "name:ru": "ул. Джинта Латинэ",
    "public_transport": "platform",
    "shelter": "yes"
  }
},
{
  "type": "node",
  "id": 633630325,
  "lat": 47.0430106,
  "lon": 28.8898419,
  "tags": {
    "bench": "yes",
    "covered": "yes",
    "highway": "bus_stop",
    "name": "str. Petru Zadnipru",
    "name:ro": "str. Petru Zadnipru",
    "name:ru": "ул. Петру Заднипру",
    "public_transport": "platform",
    "shelter": "yes"
  }
},
{
  "type": "node",
  "id": 633630328,
  "lat": 47.0438114,
  "lon": 28.8907301,
  "tags": {
    "bench": "yes",
    "covered": "yes",
    "highway": "bus_stop",
    "name": "Petru Zadnipru",
    "name:ro": "str. Petru Zadnipru",
    "name:ru": "ул. Петру Заднипру",
    "public_transport": "platform",
    "shelter": "yes"
  }
},
{
  "type": "node",
  "id": 633630330,
  "lat": 47.0517895,
  "lon": 28.8909312,
  "tags": {
    "highway": "bus_stop",
    "name": "Str. Igor Vieru",
    "name:ro": "Str. Igor Vieru",
    "name:ru": "ул. Игорь Виеру",
    "public_transport": "platform"
  }
},
{
  "type": "node",
  "id": 633689762,
  "lat": 47.0207188,
  "lon": 28.8524479,
  "tags": {
    "highway": "bus_stop",
    "name": "str. Alexandru Hâjdeu",
    "name:ru": "ул. Александра Хыждеу"
  }
},
{
  "type": "node",
  "id": 633689763,
  "lat": 47.0157316,
  "lon": 28.8877926,
  "tags": {
    "highway": "bus_stop",
    "name": "Asociaţia \"Moldovahidromaş\"",
    "name:ru": "Ассоциация \"Молдавгидромаш\"",
    "public_transport": "platform"
  }
},
{
  "type": "node",
  "id": 633689764,
  "lat": 47.0295787,
  "lon": 28.8882990,
  "tags": {
    "highway": "bus_stop",
    "name": "CET-2"
  }
},
{
  "type": "node",
  "id": 652049976,
  "lat": 46.9773366,
  "lon": 28.8705331,
  "tags": {
    "highway": "bus_stop",
    "name": "Valea Crucii",
    "name:ru": "Валя Кручий",
    "public_transport": "platform"
  }
},
{
  "type": "node",
  "id": 652050190,
  "lat": 46.9796334,
  "lon": 28.8974335,
  "tags": {
    "highway": "bus_stop",
    "name": "str. Muncești",
    "name:ru": "ул. Мунчештская",
    "public_transport": "platform"
  }
},
{
  "type": "node",
  "id": 652050231,
  "lat": 46.9949938,
  "lon": 28.9057950,
  "tags": {
    "highway": "bus_stop",
    "name": "str. Industrială",
    "name:ru": "Индустриальная ул.",
    "public_transport": "platform"
  }
},
{
  "type": "node",
  "id": 652050233,
  "lat": 46.9949238,
  "lon": 28.9053127,
  "tags": {
    "highway": "bus_stop",
    "name": "str. Industrială",
    "name:ru": "Индустриальная ул.",
    "public_transport": "platform"
  }
},
{
  "type": "node",
  "id": 664162480,
  "lat": 47.0197718,
  "lon": 28.8470755,
  "tags": {
    "highway": "bus_stop",
    "name": "str. Tighina",
    "name:ru": "ул. Тигина",
    "public_transport": "platform"
  }
},
{
  "type": "node",
  "id": 664162481,
  "lat": 47.0241899,
  "lon": 28.8670300,
  "tags": {
    "highway": "bus_stop",
    "name": "Termocentrala Nr. 1",
    "name:ru": "Термоцентраль №1",
    "public_transport": "platform"
  }
},
{
  "type": "node",
  "id": 664162482,
  "lat": 47.0247157,
  "lon": 28.8757306,
  "tags": {
    "bus": "yes",
    "highway": "bus_stop",
    "name": "Str. Podul Înalt",
    "name:ro": "Str. Podul Înalt",
    "name:ru": "ул. Подул Ыналт",
    "public_transport": "platform"
  }
},
{
  "type": "node",
  "id": 664162483,
  "lat": 47.0248995,
  "lon": 28.8759434,
  "tags": {
    "bus": "yes",
    "highway": "bus_stop",
    "name": "Str. Podul Înalt",
    "name:ro": "Str. Podul Înalt",
    "name:ru": "ул. Подул Ыналт",
    "public_transport": "platform"
  }
},
{
  "type": "node",
  "id": 664162484,
  "lat": 47.0335689,
  "lon": 28.8901774,
  "tags": {
    "highway": "bus_stop",
    "name": "str. Vadul lui Voda",
    "name:ru": "Вадул-луй-Водская ул.",
    "public_transport": "platform"
  }
},
{
  "type": "node",
  "id": 664162485,
  "lat": 47.0375604,
  "lon": 28.9031936,
  "tags": {
    "highway": "bus_stop",
    "name": "str. Colonița",
    "name:ru": "ул. Колоница",
    "public_transport": "platform"
  }
},
{
  "type": "node",
  "id": 664162486,
  "lat": 47.0488221,
  "lon": 28.9268761,
  "tags": {
    "highway": "bus_stop",
    "name": "La Hanul lui Vasile",
    "public_transport": "platform"
  }
},
{
  "type": "node",
  "id": 664162487,
  "lat": 47.0489986,
  "lon": 28.9266971,
  "tags": {
    "highway": "bus_stop",
    "name": "La Hanul lui Vasile",
    "public_transport": "platform"
  }
},
{
  "type": "node",
  "id": 664249759,
  "lat": 47.0213186,
  "lon": 28.8456399,
  "tags": {
    "highway": "bus_stop",
    "name": "str. Bulgară",
    "name:ru": "Болгарская ул."
  }
},
{
  "type": "node",
  "id": 665497006,
  "lat": 47.0685547,
  "lon": 28.8879454,
  "tags": {
    "highway": "bus_stop",
    "name": "Megapolis Mall",
    "public_transport": "platform"
  }
},
{
  "type": "node",
  "id": 694216625,
  "lat": 47.0409989,
  "lon": 28.8426189,
  "tags": {
    "highway": "bus_stop",
    "name": "str. Gara \"Vesterniceni\"",
    "name:ru": "ул. Вокзал \"Вестерничены\"",
    "public_transport": "platform"
  }
},
{
  "type": "node",
  "id": 694635131,
  "lat": 47.0397856,
  "lon": 28.8666106,
  "tags": {
    "highway": "bus_stop"
  }
},
{
  "type": "node",
  "id": 694635135,
  "lat": 47.0382436,
  "lon": 28.8627259,
  "tags": {
    "highway": "bus_stop"
  }
},
{
  "type": "node",
  "id": 837571638,
  "lat": 47.0666086,
  "lon": 28.7786339,
  "tags": {
    "highway": "bus_stop",
    "name": "Fabrica de Asfalt",
    "public_transport": "platform"
  }
},
{
  "type": "node",
  "id": 837571642,
  "lat": 47.0576446,
  "lon": 28.7826813,
  "tags": {
    "highway": "bus_stop",
    "name": "Baza Auto",
    "name:ro": "Baza Auto",
    "name:ru": "Автобаза",
    "public_transport": "platform"
  }
},
{
  "type": "node",
  "id": 890891304,
  "lat": 46.9986343,
  "lon": 28.8516217,
  "tags": {
    "highway": "bus_stop",
    "name": "Parcul \"Valea Trandafirilor\"",
    "name:ru": "ул. Трандафирилор",
    "public_transport": "platform"
  }
},
{
  "type": "node",
  "id": 1032276238,
  "lat": 47.0064518,
  "lon": 28.8249976,
  "tags": {
    "highway": "bus_stop",
    "name": "Magazin \"Fidesco\"",
    "name:ru": "Магазин \"Фидеско\"",
    "public_transport": "platform"
  }
},
{
  "type": "node",
  "id": 1035241553,
  "lat": 47.0611636,
  "lon": 28.8420874,
  "tags": {
    "bus": "yes",
    "highway": "bus_stop",
    "name": "str. Cucorilor",
    "name:ru": "ул. Кокорилор",
    "public_transport": "platform"
  }
},
{
  "type": "node",
  "id": 1035241554,
  "lat": 47.0614137,
  "lon": 28.8429105,
  "tags": {
    "bus": "yes",
    "highway": "bus_stop",
    "name": "str. Cucorilor",
    "name:ru": "ул. Кукорилор",
    "public_transport": "platform"
  }
},
{
  "type": "node",
  "id": 1035241557,
  "lat": 47.0613022,
  "lon": 28.8460111,
  "tags": {
    "bench": "yes",
    "bus": "yes",
    "highway": "bus_stop",
    "name": "str. Socoleni",
    "name:ru": "ул. Соколень",
    "public_transport": "platform"
  }
},
{
  "type": "node",
  "id": 1067653107,
  "lat": 47.0242030,
  "lon": 28.8426309,
  "tags": {
    "bus": "yes",
    "highway": "bus_stop",
    "name": "Strada Vasile Alecsandri",
    "name:ru": "улица Василе Александри",
    "public_transport": "platform"
  }
},
{
  "type": "node",
  "id": 1133509406,
  "lat": 47.0188858,
  "lon": 28.8326511,
  "tags": {
    "bus": "yes",
    "highway": "bus_stop",
    "name": "str. București",
    "name:ro": "str. București",
    "name:ru": "ул. Букурешть",
    "public_transport": "platform"
  }
},
{
  "type": "node",
  "id": 1133509408,
  "lat": 47.0219754,
  "lon": 28.8370375,
  "tags": {
    "bus": "yes",
    "highway": "bus_stop",
    "name": "Bd. Ștefan cel Mare și Sfânt",
    "name:ro": "Bd. Ștefan cel Mare și Sfânt",
    "name:ru": "пр-т Штефан чел Маре",
    "old_name": "пр-т Ленина",
    "public_transport": "platform"
  }
},
{
  "type": "node",
  "id": 1133509409,
  "lat": 47.0159034,
  "lon": 28.8284161,
  "tags": {
    "highway": "bus_stop",
    "name": "str. Bernadazzi",
    "name:ro": "str. Bernadazzi 83",
    "name:ru": "ул. Бернардацци"
  }
},
{
  "type": "node",
  "id": 1133509412,
  "lat": 47.0198166,
  "lon": 28.8340446,
  "tags": {
    "bus": "yes",
    "highway": "bus_stop",
    "name": "str. 31 August",
    "name:ru": "ул. 31 Августа",
    "public_transport": "platform"
  }
},
{
  "type": "node",
  "id": 1163335402,
  "lat": 47.0075235,
  "lon": 28.8600921,
  "tags": {
    "highway": "bus_stop",
    "name": "Hidrotehnica",
    "name:ru": "Гидротехника",
    "public_transport": "platform"
  }
},
{
  "type": "node",
  "id": 1207327539,
  "lat": 47.0135611,
  "lon": 28.8505075,
  "tags": {
    "highway": "bus_stop",
    "name": "bd. Negruzzi",
    "name:ru": "бульвар К. Негруцци",
    "public_transport": "platform"
  }
},
{
  "type": "node",
  "id": 1209486292,
  "lat": 47.0575091,
  "lon": 28.8477965,
  "tags": {
    "highway": "bus_stop",
    "name": "str. Iazului",
    "name:ru": "ул. Язулуй",
    "public_transport": "platform"
  }
},
{
  "type": "node",
  "id": 1211607992,
  "lat": 47.0551428,
  "lon": 28.8496256,
  "tags": {
    "highway": "bus_stop",
    "name": "str. Ceucari",
    "name:ru": "ул. Чеукарь",
    "public_transport": "platform"
  }
},
{
  "type": "node",
  "id": 1211611471,
  "lat": 47.0580755,
  "lon": 28.8477516,
  "tags": {
    "highway": "bus_stop",
    "name": "str. Iazului",
    "name:ru": "ул. Язулуй",
    "public_transport": "platform"
  }
},
{
  "type": "node",
  "id": 1211614943,
  "lat": 47.0510337,
  "lon": 28.8500667,
  "tags": {
    "bench": "yes",
    "covered": "yes",
    "highway": "bus_stop",
    "name": "str. Vasile Badiu",
    "name:ru": "ул. Василе Бадю",
    "public_transport": "platform",
    "shelter": "yes"
  }
},
{
  "type": "node",
  "id": 1211616127,
  "lat": 47.0516229,
  "lon": 28.8507320,
  "tags": {
    "bench": "no",
    "covered": "yes",
    "highway": "bus_stop",
    "name": "str. Vasile Badiu",
    "name:ru": "ул. Василе Бадю",
    "public_transport": "platform",
    "shelter": "yes"
  }
},
{
  "type": "node",
  "id": 1216583421,
  "lat": 47.0080606,
  "lon": 28.8924880,
  "tags": {
    "highway": "bus_stop",
    "name": "Otovasca",
    "name:ru": "Отоваска",
    "public_transport": "platform"
  }
},
{
  "type": "node",
  "id": 1216583430,
  "lat": 46.9881816,
  "lon": 28.8539442,
  "tags": {
    "highway": "bus_stop",
    "name": "Str. Teilor",
    "name:ro": "Str. Teilor",
    "name:ru": "ул. Теилор",
    "public_transport": "platform"
  }
},
{
  "type": "node",
  "id": 1216583441,
  "lat": 46.9931500,
  "lon": 28.8472483,
  "tags": {
    "highway": "bus_stop",
    "name": "Hristo Botev",
    "name:ru": "Христо Ботев",
    "public_transport": "platform"
  }
},
{
  "type": "node",
  "id": 1216583454,
  "lat": 47.0406309,
  "lon": 28.8904060,
  "tags": {
    "highway": "bus_stop",
    "name": "Pretura sectorului Ciocana",
    "name:ru": "Петруа сек. Чекан",
    "public_transport": "platform"
  }
},
{
  "type": "node",
  "id": 1216583462,
  "lat": 47.0049971,
  "lon": 28.8420937,
  "tags": {
    "highway": "bus_stop",
    "name": "Spitalul Clinic Municipal nr.1",
    "name:ru": "Городская клиническая больница №1",
    "public_transport": "platform"
  }
},
{
  "type": "node",
  "id": 1216583516,
  "lat": 47.0152582,
  "lon": 28.8448887,
  "tags": {
    "highway": "bus_stop",
    "name": "Bulevardul Ștefan cel Mare și Sfânt",
    "name:ro": "Bulevardul Ștefan cel Mare și Sfânt",
    "name:ru": "бульвар Штефан чел Маре",
    "public_transport": "platform"
  }
},
{
  "type": "node",
  "id": 1216583523,
  "lat": 46.9808989,
  "lon": 28.9009687,
  "tags": {
    "highway": "bus_stop",
    "name": "Varniţa",
    "name:ru": "Варница",
    "public_transport": "platform"
  }
},
{
  "type": "node",
  "id": 1216583531,
  "lat": 46.9972795,
  "lon": 28.8988994,
  "tags": {
    "highway": "bus_stop",
    "name": "Asociatia \"Vitanta\"",
    "name:ru": "Ассоциация \"Витанта\"",
    "public_transport": "platform"
  }
},
{
  "type": "node",
  "id": 1216583538,
  "lat": 46.9924852,
  "lon": 28.8490534,
  "tags": {
    "highway": "bus_stop",
    "name": "Zelinski",
    "name:ru": "пр. Дачия",
    "public_transport": "platform"
  }
},
{
  "type": "node",
  "id": 1216583541,
  "lat": 46.9794865,
  "lon": 28.8831571,
  "tags": {
    "highway": "bus_stop",
    "name": "Parcul de Autobuze nr.2",
    "name:ru": "Автобусный парк №2",
    "public_transport": "platform"
  }
},
{
  "type": "node",
  "id": 1218066882,
  "lat": 46.9870352,
  "lon": 28.8443410,
  "tags": {
    "highway": "bus_stop"
  }
},
{
  "type": "node",
  "id": 1218066888,
  "lat": 46.9894578,
  "lon": 28.8454002,
  "tags": {
    "highway": "bus_stop",
    "name": "Colegiul de Muzică \"Ștefan Neaga\"",
    "name:ru": "Музыкальный колледж им. Штефана Няги",
    "public_transport": "platform"
  }
},
{
  "type": "node",
  "id": 1218066892,
  "lat": 46.9927640,
  "lon": 28.8460848,
  "tags": {
    "highway": "bus_stop",
    "name": "bd. Dacia",
    "name:ru": "бульвар Дачия",
    "public_transport": "platform"
  }
},
{
  "type": "node",
  "id": 1218066914,
  "lat": 46.9870316,
  "lon": 28.8448810,
  "tags": {
    "highway": "bus_stop",
    "name": "str. Hristo Botev",
    "name:ru": "ул. Индепенденцей",
    "public_transport": "platform"
  }
},
{
  "type": "node",
  "id": 1246339313,
  "lat": 46.9959492,
  "lon": 28.8463057,
  "tags": {
    "highway": "bus_stop",
    "name": "str. Zelinschi",
    "name:ru": "ул. Зелинского",
    "public_transport": "platform"
  }
},
{
  "type": "node",
  "id": 1258789424,
  "lat": 46.9907753,
  "lon": 28.8676891,
  "tags": {
    "highway": "bus_stop",
    "name": "str. Butucului",
    "name:ru": "ул. Бутукулуй",
    "public_transport": "platform"
  }
},
{
  "type": "node",
  "id": 1288238644,
  "lat": 47.0082643,
  "lon": 28.8598838,
  "tags": {
    "bus": "yes",
    "highway": "bus_stop",
    "name": "Palatul de Cultură al Feroviarilor",
    "name:ru": "Дворец Культуры Железнодорожников",
    "public_transport": "platform"
  }
},
{
  "type": "node",
  "id": 1316044698,
  "lat": 47.0280256,
  "lon": 28.8402924,
  "tags": {
    "bus": "yes",
    "highway": "bus_stop",
    "public_transport": "platform",
    "shelter": "yes"
  }
},
{
  "type": "node",
  "id": 1363071267,
  "lat": 46.9903043,
  "lon": 28.8510651,
  "tags": {
    "highway": "bus_stop"
  }
},
{
  "type": "node",
  "id": 1363586642,
  "lat": 46.9786957,
  "lon": 28.8456093,
  "tags": {
    "bus": "yes",
    "highway": "bus_stop",
    "name": "str. Grenoble",
    "name:ro": "str. Grenoble 1",
    "name:ru": "ул. Гренобля 1",
    "public_transport": "platform",
    "wheelchair": "yes"
  }
},
{
  "type": "node",
  "id": 1482712250,
  "lat": 46.9886079,
  "lon": 28.8859487,
  "tags": {
    "highway": "bus_stop",
    "name": "Parcul de Troleibuze nr. 2",
    "name:ru": "Троллейбусный парк №2",
    "public_transport": "platform"
  }
},
{
  "type": "node",
  "id": 1482712252,
  "lat": 47.0452826,
  "lon": 28.7850345,
  "tags": {
    "highway": "bus_stop",
    "name": "str. Ghidighici",
    "name:ro": "Str. Ghidighici",
    "name:ru": "ул. Гидигич",
    "public_transport": "platform"
  }
},
{
  "type": "node",
  "id": 1484644401,
  "lat": 46.9870220,
  "lon": 28.8730369,
  "tags": {
    "highway": "bus_stop",
    "name": "Colegiul de Transport",
    "name:ru": "Колледж Транспорта",
    "public_transport": "platform"
  }
},
{
  "type": "node",
  "id": 1484644406,
  "lat": 46.9873658,
  "lon": 28.7805635,
  "tags": {
    "highway": "bus_stop",
    "name": "str. Valea Radiului.",
    "public_transport": "platform"
  }
},
{
  "type": "node",
  "id": 1486104433,
  "lat": 46.9935490,
  "lon": 28.8474284,
  "tags": {
    "highway": "bus_stop"
  }
},
{
  "type": "node",
  "id": 1526857983,
  "lat": 46.9799438,
  "lon": 28.8571927,
  "tags": {
    "bus": "yes",
    "highway": "bus_stop",
    "name": "Cuza Vodă, 24",
    "name:ru": "Куза Водэ, 24",
    "public_transport": "platform"
  }
},
{
  "type": "node",
  "id": 1554651685,
  "lat": 47.0436294,
  "lon": 28.8661533,
  "tags": {
    "highway": "bus_stop",
    "name": "str. Nicolae Dimo",
    "name:ru": "ул. Николая Димо",
    "public_transport": "platform"
  }
},
{
  "type": "node",
  "id": 1554651691,
  "lat": 47.0441788,
  "lon": 28.8597773,
  "tags": {
    "highway": "bus_stop",
    "name": "Bogdan Voievod",
    "name:ro": "Bogdan Voievod",
    "name:ru": "Богдан Воевод",
    "public_transport": "platform"
  }
},
{
  "type": "node",
  "id": 1557395456,
  "lat": 47.0436246,
  "lon": 28.8525230,
  "tags": {
    "highway": "bus_stop",
    "name": "str. Florilor",
    "name:ro": "Florilor 6/2",
    "name:ru": "ул. Флорилор",
    "public_transport": "platform"
  }
},
{
  "type": "node",
  "id": 1557395459,
  "lat": 47.0461810,
  "lon": 28.8488458,
  "tags": {
    "highway": "bus_stop",
    "name": "str. Calea Orheiului",
    "public_transport": "platform"
  }
},
{
  "type": "node",
  "id": 1557395464,
  "lat": 47.0466317,
  "lon": 28.8485801,
  "tags": {
    "highway": "bus_stop",
    "name": "bd. Renașterii Naționale",
    "name:ru": "пр. Ренаштерий Национале",
    "public_transport": "platform"
  }
},
{
  "type": "node",
  "id": 1557396061,
  "lat": 47.0652180,
  "lon": 28.8444294,
  "tags": {
    "bus": "yes",
    "highway": "bus_stop",
    "name": "Liceul \"George Călinescu\"",
    "name:ru": "Лицей им. Джордже Кэлинеску",
    "public_transport": "platform"
  }
},
{
  "type": "node",
  "id": 1557396084,
  "lat": 47.0653801,
  "lon": 28.8439748,
  "tags": {
    "bus": "yes",
    "highway": "bus_stop",
    "name": "Liceul \"George Călinescu\"",
    "name:ru": "Лицей им. Джордже Кэлинеску",
    "public_transport": "platform"
  }
},
{
  "type": "node",
  "id": 1558238119,
  "lat": 47.0438437,
  "lon": 28.8594150,
  "tags": {
    "highway": "bus_stop",
    "name": "Bogdan Voievod",
    "shelter": "no",
    "tactile_paving": "no"
  }
},
{
  "type": "node",
  "id": 1558994726,
  "lat": 47.0607336,
  "lon": 28.8098276,
  "tags": {
    "highway": "bus_stop",
    "name": "Universitatea Agrară",
    "name:ru": "Аграрный университет",
    "public_transport": "platform"
  }
},
{
  "type": "node",
  "id": 1558999570,
  "lat": 47.0413403,
  "lon": 28.8422740,
  "tags": {
    "highway": "bus_stop",
    "name": "str. Gara \"Vesterniceni\" №21, 23, 27",
    "name:ru": "ул. Вокзал \"Вестерничены\"",
    "public_transport": "platform",
    "shelter": "no"
  }
},
{
  "type": "node",
  "id": 1558999573,
  "lat": 47.0446015,
  "lon": 28.8479992,
  "tags": {
    "highway": "bus_stop",
    "name": "Bd. Renașterii Naționale",
    "name:ro": "Bd. Renașterii Naționale",
    "name:ru": "Коммерческий центр \"Супратен\"",
    "public_transport": "platform"
  }
},
{
  "type": "node",
  "id": 1558999576,
  "lat": 47.0447877,
  "lon": 28.8477432,
  "tags": {
    "highway": "bus_stop",
    "name": "str. Calea Orheiului",
    "name:ru": "ул. Каля Орхеюлуй",
    "public_transport": "platform"
  }
},
{
  "type": "node",
  "id": 1559024579,
  "lat": 47.0250241,
  "lon": 28.8165109,
  "tags": {
    "bus": "yes",
    "highway": "bus_stop",
    "name": "str. C. Stere",
    "name:ru": "ул. К. Стере",
    "old_name": "ул. Физкультурников",
    "public_transport": "platform",
    "shelter": "yes"
  }
},
{
  "type": "node",
  "id": 1655985132,
  "lat": 47.0237452,
  "lon": 28.8250650,
  "tags": {
    "bus": "yes",
    "highway": "bus_stop",
    "name": "str. Nicolae Iorga",
    "name:ru": "ул. Николае Йорга",
    "public_transport": "platform"
  }
},
{
  "type": "node",
  "id": 1723804162,
  "lat": 47.0466689,
  "lon": 28.8835582,
  "tags": {
    "highway": "bus_stop",
    "name": "Centrul civic",
    "public_transport": "platform"
  }
},
{
  "type": "node",
  "id": 1723817019,
  "lat": 47.0372194,
  "lon": 28.8873580,
  "tags": {
    "bench": "yes",
    "covered": "yes",
    "highway": "bus_stop",
    "name": "str. Alecu Russo",
    "name:ru": "ул. Алеку Руссо",
    "public_transport": "platform",
    "shelter": "yes"
  }
},
{
  "type": "node",
  "id": 1728254355,
  "lat": 47.0233613,
  "lon": 28.8193409,
  "tags": {
    "bus": "yes",
    "highway": "bus_stop",
    "public_transport": "platform"
  }
},
{
  "type": "node",
  "id": 1784926825,
  "lat": 47.0622885,
  "lon": 28.8552424,
  "tags": {
    "highway": "bus_stop",
    "name": "str. Socoleni",
    "name:ru": "ул. Соколень",
    "public_transport": "platform"
  }
},
{
  "type": "node",
  "id": 1784927029,
  "lat": 47.0602101,
  "lon": 28.8630883,
  "tags": {
    "highway": "bus_stop",
    "name": "str. Florilor",
    "name:ru": "ул. Флорилор",
    "public_transport": "platform"
  }
},
{
  "type": "node",
  "id": 1836461036,
  "lat": 47.0477052,
  "lon": 28.8265211,
  "tags": {
    "highway": "bus_stop",
    "name": "Baza de Transport Auto nr. 31",
    "name:ru": "Автобаза №31",
    "public_transport": "platform"
  }
},
{
  "type": "node",
  "id": 1836506522,
  "lat": 47.0385793,
  "lon": 28.8580075,
  "tags": {
    "highway": "bus_stop",
    "name": "str. Tudor Vladimirescu",
    "name:ru": "ул. Тудора Владимиреску",
    "public_transport": "platform"
  }
},
{
  "type": "node",
  "id": 1837662770,
  "lat": 46.9788395,
  "lon": 28.9037741,
  "tags": {
    "highway": "bus_stop",
    "name": "sos. Muncești 426",
    "name:ru": "Мунчештская, 426",
    "public_transport": "platform"
  }
},
{
  "type": "node",
  "id": 1844942249,
  "lat": 47.0432210,
  "lon": 28.8560557,
  "tags": {
    "highway": "bus_stop",
    "name": "str. Bogdan Voievod",
    "name:ro": "str. Bogdan Voievod",
    "name:ru": "ул. Богдан Воевод",
    "public_transport": "platform",
    "shelter": "no",
    "tactile_paving": "no"
  }
},
{
  "type": "node",
  "id": 2144170985,
  "lat": 47.0315634,
  "lon": 28.8631485,
  "tags": {
    "highway": "bus_stop",
    "name": "Florării",
    "name:ru": "Флорэрий",
    "public_transport": "platform"
  }
},
{
  "type": "node",
  "id": 2616042623,
  "lat": 47.0256967,
  "lon": 28.8027519,
  "tags": {
    "highway": "bus_stop",
    "name": "str. P. Ceaikovski",
    "name:ru": "ул. Петра Чайковского",
    "public_transport": "platform"
  }
},
{
  "type": "node",
  "id": 2616121534,
  "lat": 46.9748594,
  "lon": 28.8750339,
  "tags": {
    "highway": "bus_stop",
    "name": "Grădina botanică",
    "name:ru": "Ботанический сад",
    "public_transport": "platform"
  }
},
{
  "type": "node",
  "id": 2635477677,
  "lat": 47.0426940,
  "lon": 28.8356669,
  "tags": {
    "addr:housenumber": "15/3",
    "addr:postcode": "2059",
    "addr:street": "Strada Petricani",
    "email": "info@decorelli.md",
    "highway": "bus_stop",
    "name": "DECORELLI",
    "name:ru": "ДЕКОРЕЛЛИ",
    "opening_hours": "Mo-Fr 09:00-18:00; Sa 09:00-13:00",
    "phone": "+37369728782",
    "public_transport": "platform",
    "shop": "hardware",
    "website": "https://decorelli.md"
  }
},
{
  "type": "node",
  "id": 2635477682,
  "lat": 47.0432548,
  "lon": 28.8346676,
  "tags": {
    "highway": "bus_stop",
    "name": "Centrul Comercial \"Supraten\"",
    "name:ru": "Коммерческий центр \"Супратен\"",
    "public_transport": "platform"
  }
},
{
  "type": "node",
  "id": 2639576322,
  "lat": 47.0287727,
  "lon": 28.8496812,
  "tags": {
    "bus": "yes",
    "highway": "bus_stop",
    "name": "Grigore Ureche",
    "name:ru": "Григоре Уреке",
    "public_transport": "platform"
  }
},
{
  "type": "node",
  "id": 2639762769,
  "lat": 47.0016099,
  "lon": 28.8377574,
  "tags": {
    "highway": "bus_stop",
    "name": "str. Gheorghe Cașu",
    "name:ru": "ул. Георге Кашу",
    "public_transport": "platform"
  }
},
{
  "type": "node",
  "id": 2639799455,
  "lat": 47.0464900,
  "lon": 28.8471924,
  "tags": {
    "highway": "bus_stop",
    "name": "str. Putnei",
    "name:ru": "ул. Путней",
    "public_transport": "platform"
  }
},
{
  "type": "node",
  "id": 2639799458,
  "lat": 47.0517999,
  "lon": 28.8459872,
  "tags": {
    "highway": "bus_stop",
    "name": "str. Vasile Badiu",
    "name:ru": "ул. Василе Бадю",
    "public_transport": "platform"
  }
},
{
  "type": "node",
  "id": 2639799461,
  "lat": 47.0545624,
  "lon": 28.8413066,
  "tags": {
    "highway": "bus_stop",
    "name": "str. Moldovița",
    "name:ru": "ул. Молдовица",
    "public_transport": "platform"
  }
},
{
  "type": "node",
  "id": 2639799463,
  "lat": 47.0551047,
  "lon": 28.8411171,
  "tags": {
    "highway": "bus_stop",
    "name": "str. Moldovița",
    "name:ru": "ул. Молдовица",
    "public_transport": "platform"
  }
},
{
  "type": "node",
  "id": 2639799465,
  "lat": 47.0570474,
  "lon": 28.8395699,
  "tags": {
    "highway": "bus_stop",
    "public_transport": "platform"
  }
},
{
  "type": "node",
  "id": 2639799467,
  "lat": 47.0575203,
  "lon": 28.8394228,
  "tags": {
    "highway": "bus_stop",
    "public_transport": "platform"
  }
},
{
  "type": "node",
  "id": 2639799471,
  "lat": 47.0604693,
  "lon": 28.8372671,
  "tags": {
    "highway": "bus_stop",
    "name": "Alimentară",
    "name:ru": "Продукты",
    "public_transport": "platform"
  }
},
{
  "type": "node",
  "id": 2640832972,
  "lat": 47.0386156,
  "lon": 28.8138314,
  "tags": {
    "highway": "bus_stop",
    "name": "Piața Dimitrie Cantemir",
    "name:ru": "Площадь Дмитрия Кантемира",
    "public_transport": "platform"
  }
},
{
  "type": "node",
  "id": 2990811389,
  "lat": 46.9708625,
  "lon": 28.8175458,
  "tags": {
    "highway": "bus_stop",
    "name": "Конечная маршрутки 178",
    "name:ro": "Stația terminus 178"
  }
},
{
  "type": "node",
  "id": 3546800305,
  "lat": 47.0617526,
  "lon": 28.8464996,
  "tags": {
    "bench": "no",
    "bus": "yes",
    "covered": "no",
    "highway": "bus_stop",
    "public_transport": "platform",
    "shelter": "no"
  }
},
{
  "type": "node",
  "id": 3565711365,
  "lat": 47.0535025,
  "lon": 28.8726061,
  "tags": {
    "highway": "bus_stop",
    "name": "str. Matei Basarab",
    "name:ru": "ул. Матей Басараб"
  }
},
{
  "type": "node",
  "id": 3799273434,
  "lat": 47.0614816,
  "lon": 28.8363009,
  "tags": {
    "highway": "bus_stop",
    "name": "Alimentară",
    "name:ru": "Продукты",
    "public_transport": "platform"
  }
},
{
  "type": "node",
  "id": 3856161595,
  "lat": 47.0384098,
  "lon": 28.8847033,
  "tags": {
    "bench": "yes",
    "covered": "yes",
    "highway": "bus_stop",
    "name": "str. Mihail Sadoveanu",
    "name:ro": "str. Mihail Sadoveanu",
    "name:ru": "ул. Михаил Садовяну",
    "public_transport": "platform",
    "shelter": "yes"
  }
},
{
  "type": "node",
  "id": 3861263969,
  "lat": 47.0365479,
  "lon": 28.8882772,
  "tags": {
    "bench": "yes",
    "covered": "yes",
    "highway": "bus_stop",
    "name": "Meşterul Manole",
    "name:ru": "ул. Мастера Маноле (Мештерул Маноле)",
    "public_transport": "platform",
    "shelter": "yes"
  }
},
{
  "type": "node",
  "id": 3956285779,
  "lat": 46.9861800,
  "lon": 28.8667057,
  "tags": {
    "highway": "bus_stop"
  }
},
{
  "type": "node",
  "id": 3956285780,
  "lat": 46.9868854,
  "lon": 28.8681743,
  "tags": {
    "highway": "bus_stop"
  }
},
{
  "type": "node",
  "id": 3956285781,
  "lat": 46.9882438,
  "lon": 28.8698691,
  "tags": {
    "highway": "bus_stop"
  }
},
{
  "type": "node",
  "id": 4100959489,
  "lat": 47.0027781,
  "lon": 28.8693152,
  "tags": {
    "highway": "bus_stop",
    "name": "str. Minsk",
    "name:ru": "Минская ул.",
    "public_transport": "platform"
  }
},
{
  "type": "node",
  "id": 4110348292,
  "lat": 47.0468347,
  "lon": 28.8901800,
  "tags": {
    "bench": "yes",
    "bus": "yes",
    "covered": "yes",
    "highway": "bus_stop",
    "name": "Magazinul Budesti",
    "name:en": "Budesti market",
    "name:ru": "Районный суд Чекан",
    "public_transport": "platform",
    "shelter": "yes"
  }
},
{
  "type": "node",
  "id": 4234141891,
  "lat": 46.9734602,
  "lon": 28.8488949,
  "tags": {
    "highway": "bus_stop"
  }
},
{
  "type": "node",
  "id": 4271565990,
  "lat": 46.9792858,
  "lon": 28.8009209,
  "tags": {
    "highway": "bus_stop",
    "name": "Конечная 108",
    "name:ro": "Stația terminus 108"
  }
},
{
  "type": "node",
  "id": 4271569390,
  "lat": 46.9669965,
  "lon": 28.8264234,
  "tags": {
    "bus": "yes",
    "highway": "bus_stop",
    "name": "Stația terminus al rutei 169",
    "name:ru": "Конечная 169",
    "public_transport": "platform"
  }
},
{
  "type": "node",
  "id": 4375859390,
  "lat": 47.0263459,
  "lon": 28.8525294,
  "tags": {
    "highway": "bus_stop",
    "public_transport": "platform"
  }
},
{
  "type": "node",
  "id": 4563305188,
  "lat": 47.0286982,
  "lon": 28.8176482,
  "tags": {
    "bus": "yes",
    "highway": "bus_stop",
    "name": "Spitalul de urgenţă",
    "name:ru": "Больница Скорой медицинской помощи",
    "public_transport": "platform"
  }
},
{
  "type": "node",
  "id": 4563450967,
  "lat": 46.9780603,
  "lon": 28.8555928,
  "tags": {
    "bus": "yes",
    "highway": "bus_stop",
    "name": "Cuza Vodă",
    "name:ro": "Cuza Vodă",
    "name:ru": "Куза Водэ",
    "public_transport": "platform"
  }
},
{
  "type": "node",
  "id": 4563450981,
  "lat": 47.0229535,
  "lon": 28.7951350,
  "tags": {
    "highway": "bus_stop",
    "name": "str. Gheorghe Codreanu",
    "name:ru": "ул. Георге Кодряну",
    "public_transport": "platform"
  }
},
{
  "type": "node",
  "id": 4563451497,
  "lat": 46.9982152,
  "lon": 28.8584447,
  "tags": {
    "highway": "bus_stop",
    "name": "Piața Decebal",
    "name:ru": "площадь Дечебал",
    "public_transport": "platform"
  }
},
{
  "type": "node",
  "id": 4563451499,
  "lat": 46.9987393,
  "lon": 28.8514951,
  "tags": {
    "highway": "bus_stop",
    "name": "Parcul \"Valea Trandafirilor\"",
    "name:ru": "ул. Трандафирилор"
  }
},
{
  "type": "node",
  "id": 4563451500,
  "lat": 46.9960396,
  "lon": 28.8466416,
  "tags": {
    "highway": "bus_stop",
    "name": "str. Trandafirilor",
    "name:ro": "str. Trandafirilor",
    "name:ru": "ул. Трандафирилор",
    "public_transport": "platform"
  }
},
{
  "type": "node",
  "id": 4563504809,
  "lat": 46.9905633,
  "lon": 28.8835706,
  "tags": {
    "highway": "bus_stop",
    "name": "Asociaţia \"Carmez\"",
    "name:ru": "Ассоциация \"Кармез\"",
    "public_transport": "platform"
  }
},
{
  "type": "node",
  "id": 4563504812,
  "lat": 46.9994013,
  "lon": 28.8726835,
  "tags": {
    "highway": "bus_stop",
    "name": "Pandurilor",
    "name:ru": "ул. Пандурилор",
    "public_transport": "platform"
  }
},
{
  "type": "node",
  "id": 4563504821,
  "lat": 46.9993041,
  "lon": 28.8730668,
  "tags": {
    "highway": "bus_stop",
    "name": "str. Pandurilor",
    "name:ru": "ул. Пандурилор",
    "public_transport": "platform"
  }
},
{
  "type": "node",
  "id": 4563504826,
  "lat": 46.9887133,
  "lon": 28.8866521,
  "tags": {
    "bus": "yes",
    "highway": "bus_stop",
    "name": "Parcul de Troleibuze nr. 2",
    "name:ru": "Троллейбусный парк №2",
    "public_transport": "platform"
  }
},
{
  "type": "node",
  "id": 4563611295,
  "lat": 46.9850534,
  "lon": 28.7779241,
  "tags": {
    "highway": "bus_stop",
    "name": "Schinoasa",
    "name:ro": "Schinoasa",
    "name:ru": "Скиноаса",
    "public_transport": "platform"
  }
},
{
  "type": "node",
  "id": 4563611309,
  "lat": 47.0478127,
  "lon": 28.7785008,
  "tags": {
    "highway": "bus_stop",
    "name": "Restaurantul \"Butoiaş\"",
    "name:ru": "Ресторан \"Бутояш\"",
    "public_transport": "platform"
  }
},
{
  "type": "node",
  "id": 4563611318,
  "lat": 47.0045905,
  "lon": 28.8869455,
  "tags": {
    "bus": "yes",
    "highway": "bus_stop",
    "name": "Asociația \"Beton Armat\"",
    "name:ru": "Ассоциация \"Армированный бетон\"",
    "public_transport": "platform"
  }
},
{
  "type": "node",
  "id": 4563611331,
  "lat": 47.0221375,
  "lon": 28.8676470,
  "tags": {
    "highway": "bus_stop",
    "name": "Asociaţia \"Tutun-CTC\"",
    "public_transport": "platform"
  }
},
{
  "type": "node",
  "id": 4563632529,
  "lat": 46.9936426,
  "lon": 28.7949467,
  "tags": {
    "highway": "bus_stop",
    "name": "Ialoveni",
    "name:ru": "Яловены",
    "public_transport": "platform"
  }
},
{
  "type": "node",
  "id": 4566489112,
  "lat": 46.9984663,
  "lon": 28.8962028,
  "tags": {
    "highway": "bus_stop",
    "name": "Asociaţia \"Efes-Vitanta\"",
    "name:ru": "Ассоциация \"Эфес-Витанта\"",
    "public_transport": "platform"
  }
},
{
  "type": "node",
  "id": 4566499748,
  "lat": 47.0425074,
  "lon": 28.8530971,
  "tags": {
    "bus": "yes",
    "highway": "bus_stop",
    "name": "Tipografia centrală",
    "name:ru": "Центральная типография",
    "public_transport": "platform"
  }
},
{
  "type": "node",
  "id": 4566543115,
  "lat": 47.0127423,
  "lon": 28.8414037,
  "tags": {
    "highway": "bus_stop",
    "name": "str. Ismail",
    "name:ru": "Измаильская ул.",
    "public_transport": "platform"
  }
},
{
  "type": "node",
  "id": 4566693255,
  "lat": 46.9855083,
  "lon": 28.8817662,
  "tags": {
    "highway": "bus_stop",
    "name": "Uzina \"Etalon\"",
    "name:ru": "Завод \"Эталон\"",
    "public_transport": "platform"
  }
},
{
  "type": "node",
  "id": 4566744961,
  "lat": 47.0380999,
  "lon": 28.8161255,
  "tags": {
    "highway": "bus_stop",
    "name": "Mitropolit Dosoftei",
    "name:ru": "Митрополит Дософтей",
    "public_transport": "platform"
  }
},
{
  "type": "node",
  "id": 4566862195,
  "lat": 47.0552681,
  "lon": 28.8161670,
  "tags": {
    "highway": "bus_stop",
    "name": "Substaţia de Tracţiune nr. 55",
    "public_transport": "platform"
  }
},
{
  "type": "node",
  "id": 4566862197,
  "lat": 47.0499721,
  "lon": 28.8223308,
  "tags": {
    "highway": "bus_stop",
    "name": "Mirceşti",
    "name:ru": "Мирчешть",
    "public_transport": "platform"
  }
},
{
  "type": "node",
  "id": 4566862199,
  "lat": 47.0293442,
  "lon": 28.8171514,
  "tags": {
    "bus": "yes",
    "highway": "bus_stop",
    "name": "Mitropolia",
    "name:ru": "Митрополия",
    "public_transport": "platform"
  }
},
{
  "type": "node",
  "id": 4566862202,
  "lat": 47.0498380,
  "lon": 28.8221403,
  "tags": {
    "highway": "bus_stop",
    "name": "Petricani",
    "name:ru": "Петриканы",
    "public_transport": "platform"
  }
},
{
  "type": "node",
  "id": 4566976645,
  "lat": 47.0247407,
  "lon": 28.8437559,
  "tags": {
    "bus": "yes",
    "highway": "bus_stop",
    "name": "str. Vasile Alecsandri",
    "name:ro": "str. Vasile Alecsandri",
    "name:ru": "ул. Василе Александри",
    "public_transport": "platform"
  }
},
{
  "type": "node",
  "id": 4566976647,
  "lat": 47.0275984,
  "lon": 28.8479428,
  "tags": {
    "bus": "yes",
    "highway": "bus_stop",
    "name": "str. Grigore Ureche",
    "name:ru": "ул. Григоре Уреке",
    "public_transport": "platform"
  }
},
{
  "type": "node",
  "id": 4566976648,
  "lat": 47.0341108,
  "lon": 28.8450612,
  "tags": {
    "highway": "bus_stop",
    "name": "Albișoara",
    "name:ru": "Албишоара",
    "public_transport": "platform"
  }
},
{
  "type": "node",
  "id": 4566976651,
  "lat": 47.0617195,
  "lon": 28.8545947,
  "tags": {
    "highway": "bus_stop",
    "name": "str. Socoleni",
    "name:ru": "ул. Соколень",
    "public_transport": "platform"
  }
},
{
  "type": "node",
  "id": 4566976669,
  "lat": 47.0250844,
  "lon": 28.8407069,
  "tags": {
    "bus": "yes",
    "highway": "bus_stop",
    "name": "str. Mihai Eminescu",
    "name:ru": "ул. Михая Эминеску",
    "public_transport": "platform"
  }
},
{
  "type": "node",
  "id": 4567338944,
  "lat": 46.9720885,
  "lon": 28.8508034,
  "tags": {
    "highway": "bus_stop",
    "name": "Valea Crucii",
    "name:ru": "Валя Кручий",
    "public_transport": "platform"
  }
},
{
  "type": "node",
  "id": 4567415794,
  "lat": 47.0062253,
  "lon": 28.8381068,
  "tags": {
    "highway": "bus_stop",
    "name": "I. Inculeț, 85",
    "name:ru": "ул. И. Инкулец",
    "public_transport": "platform"
  }
},
{
  "type": "node",
  "id": 4567421263,
  "lat": 47.0061298,
  "lon": 28.8382357,
  "tags": {
    "highway": "bus_stop",
    "name": "I. Inculeț, 85",
    "name:ru": "ул. И. Инкулец",
    "public_transport": "platform"
  }
},
{
  "type": "node",
  "id": 4567421264,
  "lat": 47.0385740,
  "lon": 28.8139276,
  "tags": {
    "highway": "bus_stop",
    "name": "Piața Dimitrie Cantemir",
    "name:ru": "Площадь Дмитрия Кантемира",
    "public_transport": "platform"
  }
},
{
  "type": "node",
  "id": 4568583237,
  "lat": 47.0264621,
  "lon": 28.7912111,
  "tags": {
    "highway": "bus_stop",
    "name": "str. Ion Creangă",
    "name:ru": "ул. Иона Крянгэ",
    "public_transport": "platform"
  }
},
{
  "type": "node",
  "id": 4568583239,
  "lat": 47.0261257,
  "lon": 28.7908410,
  "tags": {
    "highway": "bus_stop",
    "name": "str. Ion Creangă",
    "name:ru": "ул. Иона Крянгэ",
    "public_transport": "platform"
  }
},
{
  "type": "node",
  "id": 4568615434,
  "lat": 47.0166981,
  "lon": 28.8561012,
  "tags": {
    "highway": "bus_stop",
    "name": "Albișoara",
    "name:ru": "Албишоара",
    "public_transport": "platform"
  }
},
{
  "type": "node",
  "id": 4568615436,
  "lat": 47.0205363,
  "lon": 28.8557820,
  "tags": {
    "highway": "bus_stop",
    "name": "str. Ismail",
    "name:ru": "ул. Измаил",
    "public_transport": "platform"
  }
},
{
  "type": "node",
  "id": 4568615438,
  "lat": 47.0331565,
  "lon": 28.8464412,
  "tags": {
    "highway": "bus_stop",
    "name": "Albișoara",
    "name:ro": "Albișoara",
    "name:ru": "Албишоара",
    "public_transport": "platform"
  }
},
{
  "type": "node",
  "id": 4568637878,
  "lat": 47.0466975,
  "lon": 28.8834570,
  "tags": {
    "highway": "bus_stop",
    "name": "Centrul civic",
    "public_transport": "platform"
  }
},
{
  "type": "node",
  "id": 4568748401,
  "lat": 47.0617089,
  "lon": 28.8448835,
  "tags": {
    "bus": "yes",
    "highway": "bus_stop",
    "name": "Socoleni",
    "name:ru": "Соколень",
    "public_transport": "platform"
  }
},
{
  "type": "node",
  "id": 4568748403,
  "lat": 47.0621685,
  "lon": 28.8542444,
  "tags": {
    "highway": "bus_stop",
    "name": "Studenţilor",
    "name:ru": "Студенческая",
    "public_transport": "platform"
  }
},
{
  "type": "node",
  "id": 4568748405,
  "lat": 47.0617921,
  "lon": 28.8554138,
  "tags": {
    "highway": "bus_stop",
    "name": "Studenţilor",
    "name:ru": "Студенческая",
    "public_transport": "platform"
  }
},
{
  "type": "node",
  "id": 4568748408,
  "lat": 47.0593991,
  "lon": 28.8676800,
  "tags": {
    "highway": "bus_stop",
    "name": "Universitatea Tehnică",
    "name:ru": "Технический университет",
    "public_transport": "platform"
  }
},
{
  "type": "node",
  "id": 4574634490,
  "lat": 47.0200201,
  "lon": 28.8733649,
  "tags": {
    "highway": "bus_stop",
    "name": "Otovasca",
    "name:ru": "Отоваска",
    "public_transport": "platform"
  }
},
{
  "type": "node",
  "id": 4574634494,
  "lat": 47.0374875,
  "lon": 28.9038938,
  "tags": {
    "highway": "bus_stop",
    "name": "str. Colonița",
    "name:ru": "ул. Колоница",
    "public_transport": "platform"
  }
},
{
  "type": "node",
  "id": 4574634501,
  "lat": 47.0206115,
  "lon": 28.8745751,
  "tags": {
    "highway": "bus_stop",
    "name": "Otovasca",
    "name:ru": "Отоваска",
    "public_transport": "platform"
  }
},
{
  "type": "node",
  "id": 4574713307,
  "lat": 47.0660941,
  "lon": 28.7790911,
  "tags": {
    "highway": "bus_stop",
    "name": "Fabrica de Asfalt",
    "public_transport": "platform"
  }
},
{
  "type": "node",
  "id": 4574847233,
  "lat": 47.0643931,
  "lon": 28.9196628,
  "tags": {
    "highway": "bus_stop",
    "name": "Cheltuitor (staţia terminus)",
    "public_transport": "platform"
  }
},
{
  "type": "node",
  "id": 4574847234,
  "lat": 47.0642616,
  "lon": 28.9196520,
  "tags": {
    "highway": "bus_stop",
    "name": "Cheltuitor (staţia terminus)",
    "public_transport": "platform"
  }
},
{
  "type": "node",
  "id": 4574932023,
  "lat": 47.0484841,
  "lon": 28.7782375,
  "tags": {
    "highway": "bus_stop",
    "name": "Restaurantul \"Butoiaş\"",
    "name:ru": "Ресторан \"Бутояш\"",
    "public_transport": "platform"
  }
},
{
  "type": "node",
  "id": 4575190856,
  "lat": 46.9815223,
  "lon": 28.8396855,
  "tags": {
    "highway": "bus_stop",
    "name": "str. Petru Ungureanu",
    "name:ru": "ул. Петру Унгуряну",
    "public_transport": "platform"
  }
},
{
  "type": "node",
  "id": 4588143587,
  "lat": 47.0255820,
  "lon": 28.8175498,
  "tags": {
    "bus": "yes",
    "highway": "bus_stop",
    "name": "str. Constantin Stere",
    "name:ru": "ул. Константин Стере",
    "public_transport": "platform"
  }
},
{
  "type": "node",
  "id": 4588787838,
  "lat": 47.0315112,
  "lon": 28.8493553,
  "tags": {
    "highway": "bus_stop",
    "name": "str. A. Pușkin",
    "name:ru": "ул. А. Пушкина",
    "public_transport": "platform"
  }
},
{
  "type": "node",
  "id": 4590550595,
  "lat": 47.0140834,
  "lon": 28.8560971,
  "tags": {
    "highway": "bus_stop",
    "public_transport": "platform"
  }
},
{
  "type": "node",
  "id": 4590550599,
  "lat": 47.0276289,
  "lon": 28.8526291,
  "tags": {
    "highway": "bus_stop",
    "public_transport": "platform"
  }
},
{
  "type": "node",
  "id": 4685195996,
  "lat": 46.9995011,
  "lon": 28.8726092,
  "tags": {
    "highway": "bus_stop",
    "name": "str. Pandurilor",
    "name:ru": "ул. Пандурилор"
  }
},
{
  "type": "node",
  "id": 4744011622,
  "lat": 47.0561898,
  "lon": 28.8915556,
  "tags": {
    "highway": "bus_stop",
    "name": "Stație de autobus 23",
    "name:ro": "Stație de autobus 23",
    "name:ru": "Остановка автобуса​ №23"
  }
},
{
  "type": "node",
  "id": 4744011625,
  "lat": 47.0502994,
  "lon": 28.8834547,
  "tags": {
    "highway": "bus_stop",
    "name": "Statia terminus microbus 129",
    "name:ro": "Statia terminus microbus 129",
    "name:ru": "Конечная остановка 129-ой маршрутки"
  }
},
{
  "type": "node",
  "id": 4811511760,
  "lat": 47.0406143,
  "lon": 28.8354731,
  "tags": {
    "highway": "bus_stop"
  }
},
{
  "type": "node",
  "id": 4884310091,
  "lat": 47.0163961,
  "lon": 28.8448429,
  "tags": {
    "highway": "bus_stop",
    "name": "UNIC",
    "name:ru": "Уник",
    "public_transport": "platform"
  }
},
{
  "type": "node",
  "id": 4889292449,
  "lat": 47.0168053,
  "lon": 28.8438959,
  "tags": {
    "bench": "yes",
    "highway": "bus_stop",
    "name": "UNIC",
    "name:ru": "Уник",
    "public_transport": "platform",
    "shelter": "yes"
  }
},
{
  "type": "node",
  "id": 5218136321,
  "lat": 46.9842856,
  "lon": 28.8547348,
  "tags": {
    "highway": "bus_stop",
    "name": "Bulevardul Dacia",
    "name:ru": "бульвар Дачия"
  }
},
{
  "type": "node",
  "id": 5220024139,
  "lat": 47.0620810,
  "lon": 28.8552301,
  "tags": {
    "bench": "yes",
    "highway": "bus_stop",
    "shelter": "yes"
  }
},
{
  "type": "node",
  "id": 5228528421,
  "lat": 46.9745758,
  "lon": 28.8745764,
  "tags": {
    "highway": "bus_stop",
    "name": "Grădina botanică",
    "name:ru": "Ботанический сад"
  }
},
{
  "type": "node",
  "id": 5593962422,
  "lat": 46.9797776,
  "lon": 28.9021913,
  "tags": {
    "highway": "bus_stop"
  }
},
{
  "type": "node",
  "id": 5593962521,
  "lat": 46.9813804,
  "lon": 28.9017658,
  "tags": {
    "highway": "bus_stop"
  }
},
{
  "type": "node",
  "id": 5637155022,
  "lat": 46.9698677,
  "lon": 28.9134918,
  "tags": {
    "highway": "bus_stop",
    "name": "s. Bîc",
    "name:ru": "с. Бык",
    "public_transport": "platform"
  }
},
{
  "type": "node",
  "id": 5637162121,
  "lat": 46.9690679,
  "lon": 28.9136166,
  "tags": {
    "highway": "bus_stop",
    "name": "s. Bîc",
    "name:ru": "с. Бык",
    "public_transport": "platform"
  }
},
{
  "type": "node",
  "id": 5637283322,
  "lat": 46.9815860,
  "lon": 28.8980953,
  "tags": {
    "highway": "bus_stop",
    "name": "str. Grădina Botanică",
    "public_transport": "platform"
  }
},
{
  "type": "node",
  "id": 6105900885,
  "lat": 47.0238556,
  "lon": 28.8401063,
  "tags": {
    "bus": "yes",
    "highway": "bus_stop",
    "name:en": "Mihai Eminescu St. Marshrutka 152",
    "public_transport": "platform"
  }
},
{
  "type": "node",
  "id": 6370065586,
  "lat": 47.0218724,
  "lon": 28.8034157,
  "tags": {
    "highway": "bus_stop",
    "name": "str.Belinski"
  }
},
{
  "type": "node",
  "id": 6531479351,
  "lat": 47.0424249,
  "lon": 28.7948039,
  "tags": {
    "highway": "bus_stop",
    "name": "Bariera Sculeni",
    "public_transport": "platform"
  }
},
{
  "type": "node",
  "id": 6592879876,
  "lat": 47.0076555,
  "lon": 28.8493580,
  "tags": {
    "bus": "yes",
    "highway": "bus_stop",
    "name": "str. Valea Trandafirilor",
    "public_transport": "platform"
  }
},
{
  "type": "node",
  "id": 6592879877,
  "lat": 47.0076240,
  "lon": 28.8492199,
  "tags": {
    "bus": "yes",
    "highway": "bus_stop",
    "name": "str. Valea Trandafirilor",
    "public_transport": "platform"
  }
},
{
  "type": "node",
  "id": 6592879879,
  "lat": 47.0058562,
  "lon": 28.8475308,
  "tags": {
    "bus": "yes",
    "highway": "bus_stop",
    "name": "str. Melestiu",
    "name:ru": "ул. Мелестиу",
    "public_transport": "platform"
  }
},
{
  "type": "node",
  "id": 6592879880,
  "lat": 47.0057995,
  "lon": 28.8476247,
  "tags": {
    "bus": "yes",
    "highway": "bus_stop",
    "name": "str. Melestiu",
    "name:ru": "ул. Мелестиу",
    "public_transport": "platform"
  }
},
{
  "type": "node",
  "id": 6592879882,
  "lat": 47.0060281,
  "lon": 28.8455687,
  "tags": {
    "bus": "yes",
    "highway": "bus_stop",
    "name": "str. Melestiu 20",
    "name:ru": "ул. Мелестиу 20",
    "public_transport": "platform"
  }
},
{
  "type": "node",
  "id": 6633190285,
  "lat": 47.0586677,
  "lon": 28.8675837,
  "tags": {
    "highway": "bus_stop",
    "name": "Stație de troleibus",
    "name:ru": "Тролейбусная остановка",
    "operator": "Государство"
  }
},
{
  "type": "node",
  "id": 6635924285,
  "lat": 46.9883064,
  "lon": 28.8537911,
  "tags": {
    "bus": "yes",
    "highway": "bus_stop",
    "name": "str. Teilor",
    "name:ru": "ул. Теилор",
    "public_transport": "platform"
  }
},
{
  "type": "node",
  "id": 6722212885,
  "lat": 46.9959004,
  "lon": 28.7854145,
  "tags": {
    "highway": "bus_stop",
    "name": "Str. Spicului",
    "name:en": "Spicului street"
  }
},
{
  "type": "node",
  "id": 6722212886,
  "lat": 46.9944533,
  "lon": 28.7941499,
  "tags": {
    "highway": "bus_stop",
    "name": "Str. Ialoveni"
  }
},
{
  "type": "node",
  "id": 6722212887,
  "lat": 46.9933548,
  "lon": 28.7893660,
  "tags": {
    "highway": "bus_stop",
    "name": "Gara Auto Sud-Vest"
  }
}

  ]
}
